name;search_name;address;zipcode;city;country_code;type
Evenew;;Universitetsvägen 6d;10405;Stockholm;SE;6
Vasateatern;;Vasagatan 19;11120;Stockholm;SE;8
Strindbergs Intima Teater;;Barnhusgatan 20;11123;Stockholm;SE;8
Scalateatern;;Wallingatan 32;11124;Stockholm;SE;8
Dansens Hus;;Barnhusgatan 12-14;11124;Stockholm;SE;4
Tyska kyrkan;;Svartmangatan 16;11129;Stockholm;SE;7
Storkyrkan;;Trångsund 1;11129;Stockholm;SE;7
Ångbåten Blidösund;;Skeppsbrokajen 101;11130;Stockholm;SE;9
Hyde Stockholm;;Jakobsbergsgatan 15;11144;Stockholm;SE;3
Wallmans Stockholm;;Teatergatan 3;11148;Stockholm;SE;10
MDT;;Slupskjulsvägen 30;11149;Stockholm;SE;8
Teater Galeasen;;Slupskjulsvägen 32;11149;Stockholm;SE;8
Medelhavsmuseet;;Fredsgatan 2;11152;Stockholm;SE;4
Konstakadmien;;Fredsgatan 12;11152;Stockholm;SE;4
Hamburger Börs;;Jakobsgatan 6;11152;Stockholm;SE;4
Unga Klara;;Sergelgatan 7;11157;Stockholm;SE;8
The Laugh House på Scandic Klara;;Slöjdgatan 7;11157;Stockholm;SE;4
Citykonferensen;;Malmskillnadsgatan 46;11157;Stockholm;SE;4
Adolf Fredriks kyrka;;Holländargatan 14;11160;Stockholm;SE;7
Elverket;;Linnégatan 69;11212;Stockholm;SE;4
Blå Hallen;;Hantverkargatan 1;11221;Stockholm;SE;4
Ö2 Kungsholmen;;Bergsgatan 11;11223;Stockholm;SE;8
Le Bistrot de Wasahof;;Dalagatan 46;11324;Stockholm;SE;10
Gustav Vasa Kyrka;;Karlbergsvägen 5;11327;Stockholm;SE;7
Filadelfia Convention Center;;Rörstrandsgatan 5;11340;Stockholm;SE;4
Stefanskyrkan;;Frejgatan 20b;11349;Stockholm;SE;7
Restaurang Sue Ellen;;Tulegatan 17;11353;Stockholm;SE;10
Dansens Hus C/O Accelerator;Dansens Hus co Accelerator;Frescativägen 26A;11418;Stockholm;SE;4
Engelbrektskyrkan;;Östermalmsgatan 20;11426;Stockholm;SE;7
Maximteatern;;Karlaplan 4;11460;Stockholm;SE;8
Prins Eugens Waldemarsudde;;Prins Eugens väg 6;11521;Stockholm;SE;4
Blå Porten;;Djurgårdsvägen 64;11521;Stockholm;SE;10
Cirkus;;Djurgårdsslätten 43-45;11521;Stockholm;SE;8
Tyrol;;Lilla Allmänna gränd 2;11521;Stockholm;SE;10
Etnografiska museet;;Djurgårdsbrunnsvägen 34;11527;Stockholm;SE;4
Gärdet;;Ladugårdsgärdet;11528;Stockholm;SE;5
Stora Skuggans utedansbana;;Stora Skuggan;11542;Stockholm;SE;5
Hjorthagens Kulturhus;;Artemisgatan 19;11542;Stockholm;SE;4
Stockholms konstnärliga högskola;;Valhallavägen 189;11553;Stockholm;SE;4
Banankompaniet;;Frihamnsgatan 14;11556;Stockholm;SE;4
Kungliga Musikhögskolan;;Vallhallavägen 105;11591;Stockholm;SE;4
Göta Lejon;;Götgatan 55;11621;Stockholm;SE;8
La Cucaracha;;Bondegatan 2;11623;Stockholm;SE;10
Sofia kyrka;;Klefbecks backe;11635;Stockholm;SE;7
Sofias lokal;;Erstagatan 22;11636;Stockholm;SE;4
Twang;;Katarina Bangata 25;11639;Stockholm;SE;10
Svartklubben;;Södermannagatan 27;11640;Stockholm;SE;10
Orionteatern;;Katarina Bangata 77;11642;Stockholm;SE;4
Södra Teatern;;Mosebacke Torg 1-3;11646;Stockholm;SE;4
Ö2 Södermalm;;Götgatan 73;11662;Stockholm;SE;8
Lasse i parken;;Högalidsgatan 56;11730;Stockholm;SE;5
Stora Henriksvik;;Långholmsmuren 21;11733;Stockholm;SE;5
Drakenbergssalen;;Lignagatan 8;11734;Stockholm;SE;4
Färgfabriken;;Lövholmsbrinken 1;11743;Stockholm;SE;4
Wintervikens scen;;Vinterviksvägen 60;11765;Stockholm;SE;4
Münchenbryggeriet;;Torkel Knutssonsgatan 2;11825;Stockholm;SE;4
Rival;;Mariatorget 3;11848;Stockholm;SE;8
Slaktkyrkan;;Styckmästargatan 10;12162;Johanneshov;SE;3
Fållan;;Hallgränd 19;12162;Johanneshov;SE;3
Slakthuset;;Slakthusgatan 6;12162;Johanneshov;SE;3
Gamla Enskede Bryggeri;;Bolidenvägen 8;12163;Johanneshov;SE;10
Avicii Arena;;Avicii Arena;12177;Johanneshov;SE;6
Tele2 Arena;;Arenaslingan 14;12177;Johanneshov;SE;6
Hovet;;Arenaslingan 9;12177;Stockholm;SE;6
Triangelkyrkan;;Stockholmsvägen 18;12262;Enskede;SE;7
Dansens Hus Hallen;;Mårbackagatan 11;12343;Farsta;SE;4
Nya Rågsveds Folkets Hus;;Rågsvedsvägen 11;12465;Bandhagen;SE;4
Stockholmsmässan;;Mässvägen 1;12530;Älvsjö;SE;6
Karl o Kristinas Trädgård;;Skarpnäcksvägen 52;12838;Skarpnäck;SE;5
Bagarmossens Folkets hus;;Lillåvägen 44;12845;Bagarmossen;SE;4
Mälarhöjdens Friluftsteater;;Pettersbergsvägen 114;12940;Hägersten;SE;5
Nämdö Kyrka;;Nämdö Sand 100;13036;Nämdö;SE;7
Idöborg;;Idöborg;13036;Nämndö;SE;5
Möja kyrka;;Möja Bergs By 222;13043;Möja;SE;7
Nacka Strand Möten & Event;Nacka Strand Möten och Event;Augustendalstorget 6;13152;Nacka Strand;SE;4
Dieselverkstaden;;Marcusplatsen 17;13154;Nacka;SE;4
Nacka Aula;;Griffelvägen 11;13156;Nacka;SE;4
Ranchen Tyresö;;Tegelbruksvägen 1;13568;Tyresö;SE;10
Djurö kyrka;;Djurö kyrkväg 30;13973;Djurhamn;SE;7
Djurönäset;;Seregårdsvägen 1;13973;Djurhamn;SE;5
Armémuseum;Armemuseum;Riddargatan 13;14151;Stockholm;SE;4
Sturehovs slott;;Sturehovs slott;14590;NORSBORG;SE;4
Norrtälje kyrka;;Kyrkogata 2;76130;Norrtälje;SE;7
Folkets Hus Bio Vågen;;Stadshusgränd 3;14930;Nynäshamn;SE;4
Estrad;;Nyköpingsvägen 26;15189;Södertälje;SE;8
Gula Villan;;Turingvägen 9;15336;Järna;SE;4
Kulturhuset Ytterjärna;;Kulturcentrum 14;15391;Järna;SE;4
Idala;;Idala 3;15393;Mörkö;SE;5
Furuborghallen;;Trädgårdsvägen 23;15532;Nykvarn;SE;6
Svensk Galopp;;Hästsportens Hus;16111;Bromma;SE;5
Spånga Folkan;;Spångavägen 353;16355;Spånga;SE;4
Kistamässan;;Kistagången 1;16440;Kista;SE;4
Kaskad;;Blackebergsplan 3;16949;Bromma;SE;8
Quality Hotel Strawberry;;Råsta Strandväg 1;16979;Solna;SE;4
Top Floor | Mall of Scandinavia;;Stjärntorget 2;16979;Solna;SE;5
Strawberry Arena;;Råsta Strandväg 1;16979;Solna;SE;6
La Botanica;;Stjärntorget 2;16979;Stockholm;SE;10
Confidencen;;Slottsallén 3;17079;Solna;SE;8
Järfälla Kulturscen;;Mälarvägen 2;17741;Järfälla;SE;4
Klubb Fredagsmangel;;Drabantvägen 11;17750;Jakobsberg;SE;3
Kulturhuset Ekerö;;Ångsbåtsvägen 8;17823;Ekerö;SE;4
Drottningholms Slottsteater;;Drottningens Paviljong;17893;Drottningholm;SE;8
Tibble Teater;;Attundavägen 1;18334;Täby;SE;7
Berga Teater;;Lennart Neckmans väg 8;18430;Åkersberga;SE;8
Ekbacken;;Centralvägen 55;18432;Åkersberga;SE;5
Isacs Äng;;Bruksgårdsvägen 10;18493;Åkersberga;SE;5
Gregersboda Gård;;Gregersboda gård 1;18493;Åkersberga;SE;4
Ljusterö kyrka;;Mellansjövägen 45;18495;Ljusterö;SE;7
Marums gård;;Marums gård;18497;Ljusterö;SE;5
Vallentuna Teater;;Gymnasievägen 4;18636;Vallentuna;SE;8
Vallentuna Kulturhus;;Allévägen 1-3;18686;Vallentuna;SE;4
Edsbergs slott;;Landsnoravägen 10;19251;Sollentuna;SE;4
Messingen;;Love Almqvists torg 1;19477;Upplands Väsby;SE;4
Kulturlänken;;Kulturtorget 9;19530;Märsta;SE;4
Biokällan Folkets bio;;Stockholmsvägen 25;19534;Märsta;SE;4
We Arlandastad;;Pionjärvägen 71;19561;Arlanda;SE;4
Kulturhuset;;Furuhällsplan 1;19640;Kungsängen;SE;4
Lejondals slott;;Lejondals Allé 6;19734;Bro;SE;4
Bro Park;;Önsta Allé 1;19793;Bro;SE;5
Kockum Fritid;;Västra Varvsgatan 8;21111;Malmö;SE;4
Malmö Live Konserthus;;Dag Hammaskjölds Torg 4;21118;Malmö;SE;2
KP;;Posthusplatsen 4;21120;Malmö;SE;10
Nyhamnen;;Grimsbygatan 24;21120;Malmö;SE;5
Bastionen;;Norra Vallgatan 28;21125;Malmö;SE;4
Palladium;;Södergatan 15;21134;Malmö;SE;4
Medley;;Södra Promenaden 51;21138;Malmö;SE;3
Sibbarp;;Östra Rönneholmsvägen;21143;Malmö;SE;4
Ungdomens Hus;;Norra Skolgatan 10B;21152;Malmö;SE;4
Babel;;Spångatan 38;21153;Malmö;SE;3
Barnens Scen;;Falsterbogatan 17;21436;Malmö;SE;8
Folkets park;;Amiralsgatan 35;21437;Malmö;SE;5
Annelundsgården;;Annelundsgatan 61;21444;Malmö;SE;5
Moomsteatern;;Olof Palmes plats 1;21444;Malmö;SE;8
Malmö Arena;;Hyllie Stationstorg 2;21532;Malmö;SE;6
Malmömässan;;Mässgatan 6;21532;Malmö;SE;4
Malmö Arena Hotel;;Hyllie Boulevard 12;21532;Malmö;SE;4
Studiomässan Malmö;;Stadiongatan 25;21567;Malmö;SE;4
Hyllie Park kyrkan ;;Elinelundsvägen 55D;21623;Malmö;SE;7
Tallriken, Pildammsparken;;Pildammsparken;21746;Malmö;SE;5
Restaurang Fokus;;Regementsgatan 64;21751;Malmö;SE;10
Stadionmässan;;Stadiongatan 25;21762;Malmö;SE;4
Skyttebanan vid Kalkbrottsgatan;;Skatvägen 12;21832;Bunkeflostrand;SE;4
Lunds Allhelgonakyrka;;Allhelgona Kyrkogata 1;22221;Lund;SE;7
Hotel Lundia;;Knut den stores gata 2;22221;Lund;SE;4
Månteatern;;Bredgatan 3;22221;Lund;SE;8
Lunds domkyrka;;Kyrkogatan 6;22222;Lund;SE;7
Lunds Stadshall;;Stortorget 9;22223;Lund;SE;2
Hotel Concordia;;Stålbrogatan 1;22224;Lund;SE;4
Sparbanken Skåne Arena;;Arenatorget 2-6;22228;Lund;SE;6
Grand Hotel;;Bantorget 1;22229;Lund;SE;4
Lunds Stadsteater;;Kiliansgatan 13;22350;Lund;SE;8
Magle Konserthus;;Magle St Kyrkogata 4;22350;Lund;SE;2
Lunds konsthall;;Mårtenstorget 3;22351;Lund;SE;4
Stenkrossen;;Kastanjegatan 13;22357;Lund;SE;4
Folkparken Rotundan;;Trollebergsvägen 58;22731;Lund;SE;4
Mästers Park;;Fjelievägen 58;22732;Lund;SE;5
Stenladan i Torup;;Torupsvägen 515;23040;Bara;SE;4
Torup Slott - Stenladan;;Torupsvägen 515;23040;Bara;SE;4
Trelleborgs bibliotek;;Astrid Lindgrens allé;23143;Trelleborg;SE;4
Söderslättshallen;;Klörupsvägen 48;23156;Trelleborg;SE;4
Parken kultur- och konferenscenter;;Norregatan 46-48;23163;Trelleborg;SE;4
vid Magasinet;;Smyge strandväg 10;23178;Smygehuk;SE;4
Smygehuk;;Smygehuk;23178;Trelleborg;SE;5
Bösarp Kyrka;;Bösarp Kyrka;23191;Trelleborg;SE;7
Jordberga Gods;;Jordbergaallén 154-44;23199;Klagstorp;SE;4
Arlövs Teater;;Bolagsgatan 10;23231;Arlöv;SE;8
Segers Söta;;Kabbarps Smedjeväg 7-10;23252;Åkarp;SE;4
vid Hvilans Folkhögskola;;Lundavägen 68;23252;Åkarp;SE;4
Kulturhuset Flamman;;Hantverkaregatan 7;23332;Svedala;SE;4
Smokey Barbecue;;Museivägen 21;23691;Höllviken;SE;10
Bjerreds Station;;Södra Västkustvägen 23;23736;Bjärred;SE;5
Borgeby Fältdagar;;Borgeby Slottsväg 11;23791;Bjärred;SE;5
Borgeby Slott;;Borgeby Slottsv. 13;23791;Lomma;SE;4
Falsterbo kyrka;;Kyrkogatan;23940;Falsterbo;SE;7
Klubb Strandbaden;;Strandbadsvägen 30;23942;Falsterbo;SE;3
Bistro Perspektiv;;Strandbadsvägen 30;23942;Falsterbo;SE;10
Marieholms bibliotek;;Skolgatan 1;24172;Marieholm;SE;4
Höörs Gästgiwfaregård;;Gamla Torg 4;24230;Höör;SE;4
Kulturhuset Anders;;Stenskogsvägen 2;24330;Höör;SE;4
Ringsjö Wärdshus;;Stenlycke 202;24395;Höör;SE;10
Gullåkra vid Gullåkravägen;;Gullåkra byaväg 10;24535;Staffanstorp;SE;4
Medborgarhuset;;Blekingevägen 1;24538;Staffanstorp;SE;4
Friluftsbadet;;Hällestadsvägen 16;24732;Södra Sandby;SE;4
Bollbrolyckan;;Bollbrogatan 6;25218;Helsingborg;SE;4
Dunkers kulturhus;;Kungsgatan 11;25221;Helsingborg;SE;4
Clarion Hotel Sea U;;Kungsgatan 1;25221;Helsingborg;SE;4
Sankta Maria Kyrka;;Mariagatan 8B;25223;Helsingborg;SE;7
Nöjesgrytan;;Slottshagen;25223;Helsingborg;SE;5
Helsingborg stadsteater;;Stortorget 10;25223;Helsingborg;SE;8
Charles Dickens Pub & Restaurang;Charles Dickens Pub och Restaurang;Södergatan 43;25225;Helsingborg;SE;10
Pingstkyrkan;;Gåsebäcksvägen 10;25227;Helsingborg;SE;7
Brandstationen Gåsebäck;;Gåsebäcksvägen 2;25227;Helsingborg;SE;4
Parapeten;;Parapeten 1;25267;Helsingborg;SE;4
Sundspärlan;;Fältarpsvägen 60;25275;Helsingborg;SE;4
Sofiero slott;;Sofierovägen 131;25284;Helsingborg;SE;5
Strandplan;;Strandgatan 21-19;25332;Haparanda;SE;5
Pålsjö Krog;;Drottninggatan 151;25433;Helsingborg;SE;10
Olympia Park;;Mellersta Stenbocksgatan 14;25437;Helsingborg;SE;5
Helsingborg Arena;;Mellersta Stenbocksgatan 14;25437;Helsingborg;SE;6
Fredriksdalsteatern;;Gisela Trapps väg 13;25437;Helsingborg;SE;5
Muskötgatan;;Muskötgatan 10;25466;Helsingborg;SE;4
Sofiero Gård;;Sofierovägen 118;25482;Helsingborg;SE;5
Poppegården i Domsten;;Byagatan 79;25591;Domsten;SE;5
Sundspärlan Friluftsteater;;Fältarpsvägen 60;25659;Helsingborg;SE;5
Strövelstorps Bygdegård;;Södra strövelstorpsvägen 137;26039;Hasslarp;SE;4
Krapperups Musikhall;;Krapperupsvägen 409;26041;Nyhamnsläge;SE;4
Missionshuset;;Sankt Arilds väg 15;26043;Arild;SE;4
Landskrona Teater;;Järnvägsgatan 2;26131;Landskrona;SE;8
Citadellet Landskrona;;Citadellet;26131;Landskrona;SE;5
Lock Stock & Barrel;Lock Stock och Barrel;Borgmästargatan 2;26132;Landskrona;SE;10
vid Skepparvägen;;Önskevägen 12;26161;Landskrona;SE;4
Ängelholms Hembygdspark;;Thorslundsgatan 13;26221;Ängelholm;SE;5
Jarl Kulle-scenen;;Skolgatan 4;26231;Ängelholm;SE;8
Stortorget i Ängelholm;;Stortorget;26232;Ängelholm;SE;5
Tullakroksängen, Hembygdsparken;;Thorslundsgatan 21;26233;Ängelholm;SE;5
HUS 57;;Östergatan 57;26235;ÄNGELHOLM;SE;4
Revyteatern;;Nybrovägen 5;26263;Ängelholm;SE;8
Himmelsfärdskyrkan;;Kyrkplatsen 3;26331;Höganäs;SE;7
Tivolihuset;;Östra Parkgatan 2;26333;Höganäs;SE;4
Höganäs Bryggeri;;Bruksgatan 36;26339;Höganäs;SE;10
Kullateatern;;Långarödsvägen 37a;26343;Höganäs;SE;8
Holy Smoke BBQ;;Krapperups Kyrkoväg 116;26372;Nyhamnsläge;SE;10
Mor Cilla;;Mor Cillas gränd 1;26373;Arild;SE;4
Ingelsträde Cirkusmuseum;;Ingelsträde byav 11;26391;Höganäs;SE;5
Bläsinge Gård Kullabygden;;Gamla Södåkravägen 127;26392;Jonstorp;SE;5
Brandstationen Torggatan;;Torggatan 47;26434;Klippan;SE;4
Klippans Pappersbruk;;Bruksallén 9;26439;Klippan;SE;5
Ekebo Nöjescentrum;;Axtorpsvägen 71;26694;Munka-Ljungby;SE;5
Stationen Röstånga;;Bangårdsgatan 1;26868;Röstånga;SE;10
Pepes Bodega;;Hamngatan 6;26933;Båstad;SE;3
Prästlidens parkering;;Italienska vägen 20;26934;Båstad;SE;4
Ravinen Kulturhus;;Kattiksvägen 231;26991;Båstad;SE;4
Stranden;;Hamngatan;26995;Båstad;SE;5
Klosterkyrkan;;Klostergatan 10;27134;Ystad;SE;7
Lilla Östergatan 3;;Lilla östergatan 3;27135;Ystad;SE;4
Sandskogens Idrottsplats Ystad;;Saltsjöbadsvägen 17;27139;Ystad;SE;5
Surbrunnsparken;;Surbrunnsvägen 24;27140;Ystad;SE;5
Grändens mat;;Besökaregränd 3;27142;Ystad;SE;10
Sankta Maria kyrka;;Stortorget 2A;27143;Ystad;SE;7
Fredenslund vid Västerleden;;Missunnavägen 5;27152;Ystad;SE;4
Ystad Saltsjöbad;;Saltsjöbadsvägen 15;27160;Ystad;SE;5
Backagården;;Östra Kustvägen 987;27177;Löderup;SE;10
Strandkompaniet;;Strandvägen 5;27177;Löderup;SE;5
Kåseberga Hamn;;Ales väg 34;27178;Löderup;SE;5
Charlottenlund slott;;Charlottenlunds Allé 90;27193;Ystad;SE;4
Sommarteatern Ystad;;Karlshemsvägen 51;27198;Ystad;SE;5
Öja Krog;;Sylvans Allé 64;27198;Ystad;SE;10
Konstmuseet Gösta Werner;;Strandvägen 5;27231;Simrishamn;SE;4
Fabriksgatan;;Testgatan 1;27236;Simrishamn;SE;4
Gylleboverket;;Tornavägen;27297;Gärsnäs;SE;4
Christinehof Slott;;Kristinehov Kronhjorten 101;27357;Brösarp;SE;4
Tryde Kyrka;;Trydevägen 57;27397;Tomelilla;SE;7
Marknadsplatsen;;Sparbanksgatan 2;27532;Sjöbo;SE;4
Solhällan;;Parkgatan 5;27640;Löderup;SE;5
Tingshuset 1881;;Ystadsvägen 38;27650;Hammenhög;SE;4
vid Idrottsplatsen;;Kaptensgatan 10-22;27660;Skillinge;SE;4
Hamnen Kivik;;Brogatan 7;27730;Kivik;SE;5
Vitaby Lanthandel;;Sankt Olofsvägen 1;27736;Vitaby;SE;5
Bjärnum Stadsteater;;Verumsvägen 33;28020;Bjärnum;SE;8
Hovdala Naturområde;;Boketorp 6220;28123;Hässleholm;SE;5
Hässleholm Kulturhus;;Vattugatan 18;28131;Hässleholm;SE;4
Hässleholm Kulturhus;;Vattugatan 18;28131;Hässleholm;SE;4
Restaurang Farozon;;Majorsgatan 3;28133;Hässleholm;SE;10
Hässleholmsgården vid Hovdalavägen;;Hovdalavägen 303;28135;Hässleholm;SE;4
Hovdala Slott;;Hässleholm Pl 6223;28192;Hässleholm;SE;4
Borgen;;Klockaregatan 4;28331;Osby;SE;4
Lönsboda Folkets Park;;Tranebodavägen 31;28371;Lönsboda;SE;5
Lekoseum;;Briogatan 2;28383;Osby;SE;4
Musikhuset i Markaryd;;Drottninggatan 54;28538;Markaryd;SE;4
Ingeborrarp;;Ingeborrarp 406;28691;Örkelljunga;SE;5
vid f.d. Maskin & Traktor;vid f.d. Maskin och Traktor;Storgatan 28;28832;Vinslöv;SE;4
Knislinge Folkets Park;;Parkgatan 7;28933;Knislinge;SE;5
Immelns kanotcenter;;Gamla Byvägen 1B;28973;Immeln;SE;5
Tivoliparken Kristianstad;;Tivolibadsgatan;29132;Kristianstad;SE;5
Kristianstads Teater;;Västra Boulevarden 20;29132;Kristianstad;SE;8
Föreningarnas Hus Stallet;;Magasinsgatan 3;29132;Kristianstad;SE;4
Kristianstad Arena;;Västra Storgatan 69;29154;Kristianstad;SE;6
Bäckaskog Slott;;Barumsvägen 255;29168;Fjälkinge;SE;4
Färlöv;;Ridderskantz Väg 5;29175;Färlöv;SE;5
Slottslängorna;;Slottsallén 5 A;29431;Sölvesborg;SE;5
Slottsudden;;Köpmansgatan 3;29433;Sölvesborg;SE;4
Hällevik;;Strandpromenaden 1;29472;Sölvesborg;SE;5
Alholmen;;Alholmsvägen;29493;Sölvesborg;SE;5
vid Småbåtshamnen;;Årupsvägen 128;29539;Bromölla;SE;4
Mittemot ICA Kvantum;;Infartsvägen 40;29632;Åhus;SE;4
Bränneriet i Lyngby;;297 92 Everöd;29792;Everöd;SE;5
Västra Vrams Kyrka;;Vrams bygata 3;29832;Tollarp;SE;7
Hallands Konstmuseum;;Tollsgatan 2;30232;Halmstad;SE;4
Hallandsgården på Galgberget;;Sofiavägen;30233;Halmstad;SE;5
Kattegattgymnasiets aula;;Skepparegatan 36;30238;Halmstad;SE;4
Biograf Röda Kvarn;;Bankgatan 3;30243;Halmstad;SE;4
Halmstad Arena;;Växjövägen 11;30244;Halmstad;SE;6
Halmstads Teater;;Fredsgatan 5;30246;Halmstad;SE;8
STRANDGATAN TJUGO;;Strandgatan 20;30246;Halmstad;SE;4
Martin Luther kyrka;;Östra Lyckan 5;30251;Halmstad;SE;7
Sankt Olofs kapell Tylösand;;Tjuvahålsvägen 14;30272;Halmstad;SE;7
Hotel Tylösand;;Tylöhusvägen 28;30273;Halmstad;SE;5
Kulturhuset Najaden;;Fiskaregatan 21;30290;Halmstad;SE;4
Brottet Halmstad;;Schélevägen;30291;Halmstad;SE;5
Halmstad Live;;Karl XI:s väg 47;30295;Halmstad;SE;4
Grusplan vid Skolgatan;;Skolgatan 4;30564;Gullbrandstorp;SE;4
Margits Kiosk;;Tångvägen 5;30570;Haverdal;SE;5
Ågarp;;Ågarp Lyckedal 254;30591;Halmstad;SE;4
Gullbrannagården;;Gullbrannagården 200;30596;Eldsberga;SE;4
Hwitans Trädgård;;Ågatan 23;31130;Falkenberg;SE;5
Tryckhallen i Hwitans Trädgård;;Storgatan 24;31130;Falkenberg;SE;4
Storans Trädgård;;Torggatan 10;31131;Falkenberg;SE;5
Rådhustorget;;Rådhustorget;31131;Falkenberg;SE;10
Argussalen;;Holgersgatan 7B;31135;Falkenberg;SE;8
Falkenbergs Stadsteater;;Holgersgatan 9;31135;Falkenberg;SE;8
Falkhallen;;Nyhemsplan 1;31135;Falkenberg;SE;6
Tångaskolan;;Murarevägen 50;31136;Falkenberg;SE;4
Teatergläntan;;Skogsvägen 1;31145;Falkenberg;SE;5
Teater Storan;;Torggatan 10;31147;Falkenberg;SE;8
Hedevi IP;;Hedevi IP;31160;Ullared;SE;5
Eventhallen;;Varbergsvägen 19;31160;Ullared;SE;4
Källsjö Bygdegård;;Källsjö;31162;Ullared;SE;4
Ätrasalen;;Allévägen 9;31164;Vessigebro;SE;4
Sjönevads Dansbana;;Sjönevad 306;31165;Vessigebro;SE;5
Cirkusplatsen Parallellvägen;;Parallellvägen 1;31171;Olofsbo;SE;4
Långås loge;;Långås 331;31191;Långås;SE;4
Solbackens Bygdegård, Edenberga;;Edenberga 558;31295;LAHOLM;SE;4
Krögers;;Larmtorget 7;32932;Kalmar;SE;10
Stora tältet;;Bruno Mattssons plats;33137;Värnamo;SE;4
Sigges Loge;;Stora BÄCKSHULT 1;33592;Nissafors;SE;4
Grusplan vid Harabergsgatan/Märta Ljungbergs väg;;Märta Ljungbergsvägen 56;34135;Ljungby;SE;4
Ryssbygården;;Tunagatan 9;34176;Ryssby;SE;4
vid Tallevi;;Idrottsgatan 21;34251;Vislanda;SE;4
Tyrolen i Blädinge;;Tyrolen;34291;Alvesta;SE;5
Folkets Hus Älmhult;;Skolgatan 18;34331;Älmhult;SE;4
vid IKEA;;Handelsvägen 4;34333;Älmhult;SE;4
Linnéparken;Linneparken;Linnéparken;35112;Växjö;SE;5
Växjö Konserthus;;Västra Esplanaden 10-14;35231;VÄXJÖ;SE;2
Nygatan 6;;Nygatan 6;35233;Växjö;SE;4
Vida Arena;;Storgatan 86;35246;Växjö;SE;6
Gibson Auditorium;;Linnerydsvägen 6A;36231;Tingsryd;SE;4
Världsarvsstaden Karlskrona;;Kastellvägen 15;37364;Drottningskär;SE;5
Lilla Hawaii Restaurang & Pizzeria;Lilla Hawaii Restaurang och Pizzeria;Garpenvägen 90;37023;Hasslö;SE;10
Regionteatern;;Västergatan 22-24;37045;Växjö;SE;8
Bergqvistska gården;;Borgmästaregatan 19;37115;Karlskrona;SE;5
Wämöparken;;Hästövägen;37130;Karlskrona;SE;5
Sparresalen;;Östra Prinsgatan 2;37131;Karlskrona;SE;4
Fredrikskyrkan;;Stortorget 3;37131;Karlskrona;SE;7
Trefaldighetskyrkan;;Stortorget;37132;Karlskrona;SE;7
Marinmuseum;;Bastionsgatan;37132;Karlskrona;SE;4
Karlskrona Porslinsmuseum;;Östra Hamngatan 7D;37132;Karlskrona;SE;4
Circo;;Ronnebygatan 38;37133;Karlskrona;SE;3
Konserthusteatern;;Stortorget 16;37134;Karlskrona;SE;8
JA Hotel;;Borgmästaregatan 13;37135;Karlskrona;SE;10
Brinova Arena;;Björkholmskajen 3;37136;Karlskrona;SE;4
Wämöhallens parkering;;Bättringsvägen 2;37141;Karlskrona;SE;4
Skärva Herrgård;;Skärva 2;37191;Karlskrona;SE;4
Barnens Gård;;Viet;37194;Lyckeby;SE;5
Lösens kyrka;;Fäjö 1;37194;Lyckeby;SE;7
Ronneby Cityhotell;;Järnvägsgatan 11A;37229;Ronneby;SE;4
Risatorps cirkusplats;;Bredingavägen 16;37234;Ronneby;SE;4
Brunnsparken;;Gymnastikpromenaden 2;37236;Ronneby;SE;5
Kallinge Museum;;Flisevägen 5;37252;Kallinge;SE;4
Hoby Ekbacke;;Ekbacksvägen 1;37261;Bräkne-Hoby;SE;4
Ronneby Brunn;;Reddvägen 2;37273;Ronneby;SE;4
Restaurang Karön;;Karön 13;37273;Ronneby;SE;10
Johannishus Gods;;Möllerydsvägen 11;37295;JOHANNISHUS;SE;4
Björketorps Gård;;Björketorpsvägen 17;37295;Johannishus;SE;5
Skärgårdsvallen;;Fiskaregårdsvägen 68;37366;Karlskrona;SE;5
Lokstallarna;;Prinsgatan 43;37433;Karlshamn;SE;8
Bellevueparken;;Bellevuevägen;37433;Karlshamn;SE;5
Karlshamns Stadsteater;;Erik Dahlbergsvägen 14;37434;Karlshamn;SE;8
The Pot;;Pirgatan 6;37435;Karlshamn;SE;4
Karlshamns Kastell;;Pirgatan 1;37435;Karlshamn;SE;5
Italii;;Pirgatan 4;37435;Karlshamn;SE;10
Best Western Hotell Karlshamn;;Jannebergsvägen 2;37439;Karlshamn;SE;4
Stiftsgården Södra Hoka;;Hokavägen 396-47;37492;Asarum;SE;4
BM Designcenter;;Nissavägen 7;37636;Svängsta;SE;4
bakom ICA;;Köpmangatan 21;38062;Mörbylånga;SE;4
Söderbönor;;Västerlånggatan 6;38062;Mörbylånga;SE;10
vid skolan;;Norra Möckleby 136;38696;Färjestaden;SE;5
Ljunghaga vid Tallgölsgatan;;Sveavägen 1;38240;Nybro;SE;4
Madesjö Kyrka;;Stallvägen 38;38294;Nybro;SE;7
Skogskyrkogården, Kråkerum;;Fridhem 101;38391;Mönsterås;SE;4
Munken Hotell;;Timmernabbsvägen 2;38392;Mönsterås;SE;4
Malmen;;Allfargatan 11-9;38531;Torsås;SE;4
Sjöbergs äng;;Sjöbergs äng 34;38630;Färjestaden;SE;4
Hotell Magasin1;;Järnvägsgatan 1;38650;Mörbylånga;SE;4
Haga Park;;Campingvägen 2;38660;Mörbylånga;SE;4
Carlas Cafe;;Näsby 123;38664;Degerhamn;SE;4
Ottenby naturreservat;;Kungsstenarna;38664;Degerhamn;SE;5
Mittlandsgården;;Törnbottenvägen 68;38690;Färjestaden;SE;5
Capellagården;;Vickleby Bygata 25;38693;Färjestaden;SE;5
Saxnäs Camping;;Södra Saxnäsvägen 16;38695;Färjestaden;SE;4
Mormors Bistro;;Stora Rörsvägen 74;38695;Färjestaden;SE;10
Riff Borgholm;;Sandgatan 25;38731;Borgholm;SE;3
Stadsmuseets Friluftsteater;;Tullgatan 26;38732;Borgholm;SE;5
Borgholms Stadsmuseum;;Köpmangatan 23;38732;Borgholm;SE;4
Fotbollsplan vid Ramsättravägen;;Ramsättravägen;38750;Köpingsvik;SE;4
Södviks Gästgivaregård;;Gamla vägen 35;38770;Löttorp;SE;5
Löttorps Bygdegård;;Byrumsvägen 9;38772;Löttorp;SE;4
Bödabaden;;Landsvägen Norrböda 5;38773;Löttorp;SE;4
Festplatsen i Byxelkrok;;Enerumsvägen 300;38775;Byxelkrok;SE;5
Torp-infarten;;Byxelkroksvägen 96;38775;Byxelkrok;SE;4
Övre campingen;;Viktoriastigen 6;38791;Djupvik;SE;4
Ekerum Resort;;Gårdsvägen 22;38792;Borgholm;SE;4
Kackelstugan;;Västra Sörbys Bygata 16;38792;Borgholm;SE;10
Borgholms Slottsruin;;Sollidenvägen 5;38794;Borgholm;SE;5
Lundegårds Camping;;Lundegård 1;38796;Köpingsvik;SE;4
Hagbyhamn 110;;Hagbyhamn 110;38894;Vassmolösa;SE;5
Ekenäs Hamn;;Ekenäsgatan 64;38896;Hagby;SE;5
Byteatern Kalmar Länsteater;;Barlastgatan 8;39231;Kalmar;SE;8
Kvarnholmen, Kalmar;;Stortorget;39231;Kalmar;SE;5
First Hotel Witt;;Södra Långgatan 42;39231;Kalmar;SE;10
Kalmar Teater;;Larmtorget 1;39232;Kalmar;SE;8
Teatervallen;;Olof Palmes gata 1;39232;Kalmar;SE;10
Kalmar Slott;;Kungsgatan 1;39233;Kalmar;SE;4
Söderport;;Slottsvägen 1;39233;Kalmar;SE;10
Fredriksskans IP;;Fredrikskansgatan 6;39235;Kalmar;SE;5
Gröndalshallen;;Gröndalsvägen 41;39236;Kalmar;SE;4
Skälby Loge;;Skälbyallén 7;39238;Kalmar;SE;4
Krusenstiernska Teatern;;Stora Dammgatan 11;39246;Kalmar;SE;5
Kalmarsundsparken;;Kalmarsundsparken;39247;Kalmar;SE;5
Skälby Gård;;Skälbyallén 5;39252;Kalmar;SE;5
A World of Dinosaurs;;Tingby gård;39591;Kalmar;SE;4
Liseberg;;Örgrytevägen 5;40222;Göteborg;SE;5
Lisebergsteatern;;Örgrytevägen 5;40222;Göteborg;SE;8
Rondo;;Örgrytevägen 5;40222;Göteborg;SE;4
Hotel Êggers;Hotel Eggers;Drottningtorget 2-4;41103;Göteborg;SE;10
Trädgårdsföreningen;;Södra vägen;41106;Göteborg;SE;5
Club Galej;;Östra Hamngatan 50B;41109;Göteborg;SE;3
Kajskjul 8;;Packhusplatsen 11;41113;Göteborg;SE;4
Nefertiti Jazz på Valand;;Vasagatan 41;41136;Göteborg;SE;10
Park Lane;;Kungsportsavenyn 38;41136;Göteborg;SE;3
Elite Park Avenue;;Kungsportsavenyen 36;41136;Göteborg;SE;4
Scandinavium;;Valhallagatan 1;41251;Göteborg;SE;6
Världskulturmuseet;;Södravägen 54;41254;Göteborg;SE;4
Restaurang Wijkanders;;Vera Sandbergs allé 5B;41258;Göteborg;SE;10
World of Volvo;;Lyckholms Torg 1;41263;Göteborg;SE;4
Chalmers;;Chalmersplatsen 4;41296;Göteborg;SE;4
Hagateatern;;Södra Allégatan 2;41301;Göteborg;SE;8
Contrast Public House;;Tredje Långgatan 16;41303;Göteborg;SE;10
Auktionsverket Kulturarena;;Tredje Långgatan 9;41303;Göteborg;SE;4
Villa Belparc;;A O Elliots Väg 10;41311;Göteborg;SE;5
Slottsskogsvallens Entrépark;Slottsskogsvallens Entrepark;Margretebergsgatan;41319;Göteborg;SE;5
The Abyss;;Andra Långgatan 35;41327;Göteborg;SE;3
Kvartersscenen 2Lång;Kvartersscenen Andra Lång;Andra Långgatan 30;41327;Göteborg;SE;4
Porter-Pelle;;Adolf Edelsvärds gata 11;41451;Göteborg;SE;10
Röda Sten;;Röda Sten 1;41451;Göteborg;SE;5
Frölundaborg;;Mikael Ljungbergsväg 11;41476;Göteborg;SE;6
Slottsskogen;;Slottsskogspromenaden;41476;Göteborg;SE;5
Gamlestadens medborgarhus;;Brahegatan 11;41501;Göteborg;SE;4
Skatås;;Skatåsvägen 25;41655;Göteborg;SE;5
Studiefrämjandet Göteborg Sjuhärad;;Falkgatan 7;41667;Göteborg;SE;4
Sankt Jörgen Park;;Knipplekullen 8-10;41705;Göteborg;SE;5
Två Feta Grisar Bryggeri;;Ringögatan 10;41707;Göteborg;SE;10
Monument 031;;Stålverksgatan 6;41707;Göteborg;SE;3
Bananpiren;;Södra Frihamnspiren 1;41755;Göteborg;SE;5
Kooperativet Lindholmen;;Anders Carlssons gata 2;41755;Göteborg;SE;4
QH 11 & Eriksberghallen;QH 11 och Eriksberghallen;Maskingatan 11;41764;Göteborg;SE;4
Smyrna Frihamnskyrkan;;Frihamnen 14;41770;Göteborg;SE;7
Sjöbacka grusplan;;Önnereds bryggväg 89;42157;Fiskebäck;SE;4
Emmas MusikTrädgård;;Äsperedsgatan 37;42457;Gunnilse;SE;5
Café Systrarna Werner;Cafe Systrarna Werner;Billdals Allé 40;42736;Billdal;SE;10
Kulturhuset Möllan;;Göteborgsvägen 19;43130;Mölndal;SE;4
Åbybergsparken;;Frölundagatan 27A;43130;Mölndal;SE;5
Roy Restaurant Café & Bar;Roy Restaurant Cafe och Bar;Nämndemansgatan 1;43133;Mölndal;SE;10
Teaterhuset;;Delbancogatan 10;43135;Mölndal;SE;5
Åby Arena;;Åby Arenaväg 12;43162;Mölndal;SE;6
Teater Halland;;Svärdfiskgatan 8;43240;Varberg;SE;8
Varbergs Teater;;Engelbrektsgatan 5;43241;Varberg;SE;8
Kulturhuset Komedianten;;Engelbrektsgatan 7;43242;Varberg;SE;4
Societetsparken;;Strandgatan 4A;43244;Varberg;SE;5
Sparbankshallen Varberg;;Danska vägen;43250;Varberg;SE;6
Västkustsvallens Idrottsplats;;Kustroddarevägen 19;43264;Bua;SE;4
Fridas Varberg;;Cafévägen 12;43295;Varberg;SE;10
Partille arena;;Arenatorget 2;43333;Partille;SE;6
Esters Restaurang;;Norra Torggatan 4;43430;Kungsbacka;SE;10
Elof Lindälvs Aula;;Lindälvs gata 3;43432;KUNGSBACKA;SE;4
Snäckan, Kulturhuset Fyren;;Borgmästaregatan 6;43432;Kungsbacka;SE;2
Kungsbacka Teater;;Gymnasiegatan 44;43450;Kungsbacka;SE;8
Råda Rum;;Kyrkvägen 45;43530;Mölnlycke;SE;4
Mölnlycke kulturhus;;Biblioteksgatan 2;43530;Mölnlycke;SE;4
Rådarum;;Kyrkvägen 45;43530;Mölnlycke;SE;4
Onsala Båtmuseum;;Hagards Väg 1;43931;Onsala;SE;4
Landa Bygdegård;;Ölmevallavägen 521;43963;Kungsbacka;SE;4
Tjolöholms Slott;;Tjolöholms Slott;43974;Fjärås;SE;4
Apelröd vid Apelrödsvägen;;Norra Norrelundsvägen 9;43991;Onsala;SE;4
Hamnkrogen i Gottskär;;Gottskärsvägen 183;43994;Onsala;SE;10
Mimers kulturhus;;Trollhättevägen 4;44234;Kungälv;SE;4
Mimershallen;;Triogatan 1;44249;Kungälv;SE;4
Societetshuset;;Långgatan 1;44267;Marstrand;SE;4
Carlstens Fästning;;Carlstens Fästning;44267;Marstrand;SE;10
Tofta Herrgård;;Tofta 200;44275;Lycke;SE;8
Stenungsunds festivalen 2025;;VÄSTANVINDSGATAN 8;44430;Stenungsund;SE;5
Kulturhuset Fregatten;;Fregatten 1;44430;Stenungsund;SE;4
grusplan vid Stenungsund Arena;;Nösnäsvägen 2;44447;Stenungsund;SE;4
Stenungsbaden;;Södra Stenungsön;44448;Stenungsund;SE;4
Jordhammars Herrgård;;Jordhammar 101;44495;Ödsmål;SE;4
Nääs Friluftsteater;;Nääs Slottspark, Nääs Allé 6;44892;Floda;SE;5
Ale kulturrum;;Vitklövergatan 1;44931;Nödinge;SE;4
Furulundsparken;;Furulundsvägen 16;44951;Alafors;SE;5
Kungstorget;;Kungsgatan;45130;Uddevalla;SE;5
Sinclair;;Östergatan 18;45131;Uddevalla;SE;4
Agnebergshallen;;Färgaregatan 12;45132;Uddevalla;SE;6
Museiparken;;Kampenhofsgatan 2;45150;Uddevalla;SE;5
Regionteater Väst;;Strömstadsvägen 41;45150;Uddevalla;SE;8
Bohusläns Museum;;Museigatan 1;45150;Uddevalla;SE;4
Rimnersvallen;;Rimnersgatan 13;45152;Uddevalla;SE;5
Skagerack;;Badhusgatan 10;45230;Strömstad;SE;10
Fiskartorpet;;Karlsgatan 43;45231;Strömstad;SE;5
Strömstadgymnasiets aula;;Tångenvägen 2;45280;Strömstad;SE;4
Pinneviken;;Vikenvägen;45330;Lysekil;SE;5
Sea Lodge;;Nordmanshuvudet 1;45651;Smögen;SE;5
Kajplats Soten på Smögenbryggan;;Smögenbryggan;45651;Smögen;SE;5
Stallebrottet;;Stallebrottet;45655;Bohus-Malmön;SE;4
Folkets Hus & Park;Folkets Hus och Park;Parkgatan 1;45661;Hunnebostrand;SE;5
Kville kyrka;;Kville Prästgårdsvägen 4;45743;Fjällbacka;SE;7
Scen på Bönn;;Kornhagen 1;45747;Hamburgsund;SE;5
Arena Älvhögsborg;;Storgatan 1;46131;Trollhättan;SE;6
Parkhallen, Folkets Park;;Kungsportsvägen 1;46139;Trollhättan;SE;4
Dalaborgsparken;;Dalaborgsvägen 5;46260;Vänersborg;SE;5
Folkets Hus i Lilla Edet;;Göteborgsvägen 61;46331;Lilla Edet;SE;4
vid Strömskolan;;Brodalsvägen 3;46332;Lilla Edet;SE;4
Ljudaborg utomhusscen;;Museivägen;46371;Lödöse;SE;5
Kulturbruket på Dal;;Parkgatan 8;46430;Mellerud;SE;4
vid ICA;;Sturegatan 9;46530;Nossebro;SE;4
Grästorps Konserthus;;Österlånggatan 11;46730;Grästorp;SE;4
Gjutaregatan;;Gjutaregatan 11;46740;Grästorp;SE;4
Södra Hamnen Skärhamn;;Södra Hamnen;47122;Skärhamn;SE;5
Klädesholmen;;Klädesholmen;47151;Klädesholmen;SE;5
Tjörnbro Arena;;Almön 50;47161;Tjörn;SE;5
Sundsby Säteri;;Sundsbybyvägen 385;47172;Hjälteby;SE;5
Allmags Festplats;;Allmag 444;47292;Orust;SE;5
Stenshults Föreningsgård;;Stenshult 505;47391;Orust;SE;4
Hamnmagasinet Slussen Orust;;Slussen 415;47393;Henån;SE;4
Ellösparken;;Glimsåsvägen 11;47432;ELLÖS;SE;5
Flatö Kyrka;;Flatön;47491;Flatön;SE;7
Borås Kongress;;Akademiplatsen 2;50332;Borås;SE;4
Saga Mat & Dryck;Saga Mat och Dryck;Österlånggatan 59;50337;Borås;SE;10
Åhaga;;Lillåvägen 4;50433;Borås;SE;4
Gustav Adolfs Kyrka;;Gustav Adolfsgatan 8;50456;Borås;SE;7
Bruket i Wiared;;Gamla Ryssnäsvägen 1;50464;Borås;SE;5
Textile Fashion Center;;Skaraborgsvägen 3A;50630;Borås;SE;4
Ryavallen;;Erikslundsplatsen 1;50631;Borås;SE;5
Parkteatern;;Alidelundsgatan;50631;Borås;SE;8
Parkhallen i Borås;;Fristadsvägen;50640;Borås;SE;4
Sagateatern;;Österlånggatan 59;50710;Borås;SE;8
Skrädderiets Trädgård;;Kyrkogatan 5;51154;Kinna;SE;5
Kulturhuset i Skene;;Textilgatan 1;51161;Skene;SE;4
Torpa Stenhus;;Torpa Gård;51452;Länghem;SE;4
Lilljsön;;Tranemovägen 22;51454;Nittorp;SE;4
Falköpings Folkets Park;;Trinnöjegatan;52133;Falköping;SE;5
Dotorps grusplan;;Dotorpsgatan 70;52134;Falköping;SE;5
Teaterbaren;;Medborgarplatsen 1;52144;Falköping;SE;10
Kulturskolan;;Fredriksbergsvägen 34;52144;Falköping;SE;4
Falköping Stadsteater;;Medborgarplatsen 3;52144;Falköping;SE;8
Hellidsskolan;;von Essens väg 40;52235;Tidaholm;SE;4
Folkets Hus;;Nygatan 24;52330;Ulricehamn;SE;4
Hermans lada;;Vedåsla Östergården 114;52375;Dalum;SE;4
Kunskapskällans Aula;;Västra Parkgatan 4;52423;Herrljunga;SE;4
Altorpskolan;;Västra Parkgatan 6;52430;Herrljunga;SE;4
Eriksbergs Nya kyrka;;Eriksberg;52493;Herrljunga;SE;7
Röda Kvarnen;;Torggatan 8;53131;Lidköping;SE;4
Sankt Nicolai Kyrka;;Hamngatan 7A;53134;LIDKÖPING;SE;7
Aulan, De La Gardiegymnasiet;;Stenportsgatan 21;53150;Lidköping;SE;4
Kylanderskolan;;Kylanderskolan Stadsträdgården;53151;LIDKÖPING;SE;4
Industrigatan 3;;Industrigatan 3;53160;LIDKÖPING;SE;4
Läckö Slott;;Läckö Slott;53199;Lidköping;SE;5
Kollängens Tingshus;;Husaby 1;53395;Götene;SE;4
Olofmånsgårdens Skafferi;;Olof Månsgården 1 Kestad;53396;Götene;SE;5
Österängs bygdegård;;Österäng Årnäsvägen 2;53397;Götene;SE;4
Vägs Ände;;Larv Kåryd 1;53462;Larv;SE;4
Olstorps Festplats i Tidan;;Olstorp;54018;Tidan;SE;5
Nöjesarenan;;Egnells Väg 1;54141;Skövde;SE;4
Mariestads Teater;;Österlånggatan 8;54230;Mariestad;SE;8
Mariestad Pingstkyrka;;Madlyckevägen 1A;54232;Mariestad;SE;7
Karlsholme Folkets park;;Nygatan 32;54239;Mariestad;SE;5
Waterside Mariestad;;Oxvägen 5;54245;Mariestad;SE;4
Lilla Björkö;;Bredsäter Svaneberg 3;54295;Mariestad;SE;5
Tibro Forum;;Gymnasiegatan 29;54332;Tibro;SE;4
Kulturkvarteret;;Bangatan 1 B;54430;Hjo;SE;4
Ångaren Trafik;;Hamnen;54430;Hjo;SE;9
Hotell Bellevue;;Bangatan 2;54433;Hjo;SE;4
Moliden;;Flottiljvägen 1;54630;Karlsborg;SE;4
Gjuteriet;;Bruksvägen 2;54673;Forsvik/ Karlsborg;SE;4
Teater Bryggan;;Bruksvägen 2;54673;Forsvik/Karlsborg;SE;5
Hova Kyrka;;Kyrkogatan 2;54832;Hova;SE;7
Beatebergs kyrka;;Beatebergs kyrka;54993;Moholm;SE;7
Nivå - Science Park Towers;;Barnarpsgatan 52;55316;Jönköping;SE;10
Krog & Company;Krog och Company;Brunnsgatan 13-15;55317;Jönköping;SE;10
Pingstkyrkan Jönköping;;Lagermansgatan 1;55318;Jönköping;SE;7
Elite Stora Hotellet;;Hotellplan;55320;Jönköping;SE;4
Basilika Kitchen & Bar;Basilika Kitchen och Bar;Östra Storgatan 3;55321;Jönköping;SE;10
Kulturhuset Spira;;Kulturgatan 3;55324;Jönköping;SE;2
Elmia;;Elmiavägen 15;55454;Jönköping;SE;6
Huskvarna Teater;;Jönköpingsvägen 17;56131;Huskvarna;SE;8
Huskvarna Folkets Park;;Stationsgatan 24;56133;Huskvarna;SE;5
Herrgårds Gärde;;Tenhultsvägen 26;56142;Huskvarna;SE;4
Örserums Kyrka;;Örserum;56391;Gränna;SE;7
Näs Herrgård;;Bjurbäck Näs 1;56592;Mullsjö;SE;4
Slätten;;Artillerigatan 27;56830;Skillingaryd;SE;4
Ydre Kulturcentrum;;Mosshultsvägen 3;57060;Ydre;SE;4
Björnholmen Loge;;Björnholmen Äng;57194;Nässjö;SE;4
Ribbingsnäs Ladugård;;Ribbingsnäs Säteri 2;57197;Forserum;SE;4
Forum Oskarshamn;;Södra Långgatan 17;57255;Oskarshamn;SE;4
Stadsteatern;;Södra Långgatan 15;57255;Oskarshamn;SE;8
Stadsparken;;Stadsparken;57257;Oskarshamn;SE;5
Hamnrestaurangen i Tranås;;Hamnvägen 2;57334;Tranås;SE;10
Holavedsgymnasiets aula;;Gillesgatan 4;57335;Tranås;SE;4
Withalasalen Vetlanda;;Storgatan 2-6;57432;Vetlanda;SE;4
Vetlanda Missionskyrka;;Missionsgatan 6;57433;Vetlanda;SE;7
Vetlanda Folkets Park;;Norra Esplanaden 28;57434;Vetlanda;SE;5
Stenberga Hembygdsgård;;Stenberga 16;57497;Vetlanda;SE;5
Museigården;;Österlångatan 31;57531;EKSJÖ;SE;5
Stora torget;;Stora torget;57531;Eksjö;SE;5
Sjöängen;;Sjöängen;57531;Eksjö;SE;5
Olsbergs Arena;;Storegårdsgatan 3A;57531;Eksjö;SE;4
Eksjö Torg;;Norra Kyrkogatan 6B;57532;Eksjö;SE;5
Aschanska gården;;Norra Storgatan 18;57532;Eksjö;SE;4
Eksjö Centrum;;Norra Storgatan 28;57532;Eksjö;SE;5
Krusagården;;Norra Storgatan 29C;57532;Eksjö;SE;4
Eksjö camping & konferens;Eksjö camping och konferens;Prästängsvägen 5;57536;Eksjö;SE;4
Kulturhuset;;Mejensjögatan 2;57635;Sävsjö;SE;4
Femtinge Teaterloge;;Norregården 2;57691;Sävsjö;SE;4
Hotell Hulingen;;Oskarsgatan 41;57730;Hultsfred;SE;4
Stora teatern;;Platensgatan 12;58220;Linköping;SE;8
Forumteatern;;Ågatan 55;58222;Linköping;SE;8
Linköping Konsert & Kongress;Linköping Konsert och Kongress;Konsistoriegatan 7;58222;Linköping;SE;2
Scandic Frimurarehotellet;;St Larsgatan 14;58224;Linköping;SE;4
Föreningshuset Fontänen;;Västra vägen 32;58228;Linköping;SE;4
Domkyrkan;;Sankt Persgatan;58228;Linköping;SE;7
Tidstorpet i Gamla Linköping;;Tidstorpet;58246;Linköping;SE;5
Saab Arena;;Gumpekullavägen 1;58278;Linköping;SE;6
Sankt Markus kyrka;;Parasisgatan;58327;Linköping;SE;7
Nya Munken;;Skogslyckegatan 1G;58726;Linköping;SE;4
Landeryds Hembygdspark;;Hembygdsvägen;58951;Linköping;SE;5
Kisa Kyrka;;Ulrikagatan 3;59036;Kisa;SE;7
Kisa hembygdsgård;;Enebygatan 29;59038;Kisa;SE;5
Örsebo Sörgården, Svalsjö;;Örsebo Sörgården;59039;Kisa;SE;5
Galgbacken MK;;Åstorpsgatan 2B;59049;Vikingstad;SE;4
Restaurang Sjöbris;;Repslagaregatan 1;59130;Motala;SE;10
Stora Torget Motala;;Stora Torget;59130;Motala;SE;5
Lokverkstan;;Verkstadsvägen 109;59160;Motala;SE;5
Klockrike Kyrka;;Klockrike kyrka;59178;Klockrike;SE;7
Vadstena Slott;;Hamngatan 4;59230;Vadstena;SE;5
Vadstena Gamla Teater;;Klostergatan 7;59230;Vadstena;SE;8
Borggården på Vadstena Slott;;Hamngatan 4;59230;Vadstena;SE;5
Shakespearefabriken;;Ullevi 101;59291;Vadstena;SE;8
Stadshotellet;;Storgatan 3;59330;Västervik;SE;4
Teaterskeppet;;Esplanaden 11a;59331;Västervik;SE;4
Bryggaren Kulturscen;;Spötorget 1;59333;Västervik;SE;4
Stegeholms Slottsruin;;Slottsholmsvägen;59338;Västervik;SE;5
Lögarebergen;;Lögarebergen;59338;Västervik;SE;5
Västerviks Museum - Utomhusscen;;Kulbacken 1;59338;Västervik;SE;5
Magiska teatern;;Fårhult Oskarsborg;59396;Västervik;SE;4
Gamleby Folkpark;;Loftagatan;59431;Gamleby;SE;5
Gamleby folkhögskola;;Loftagatan 36;59432;Gamleby;SE;4
Gamleby Folkpark;;Loftgatan;59432;VÄSTERVIK;SE;5
Mjölby Kulturscen;;Lagmansgatan 34;59552;Mjölby;SE;4
Boxholm Folkets Park;;Folkets Park;59570;Boxholm;SE;5
Tullportsteatern;;Drottninggatan 23;59836;Vimmerby;SE;8
Hotell Ronja;;Stora Mässhallsgatan 16;59840;Vimmerby;SE;4
Hugo Nattklubb;;Slottsgatan 116;60220;Norrköping;SE;3
Arbis Bar & Salonger;Arbis Bar och Salonger;Bredgatan 54;60221;Norrköping;SE;4
Götaparken;;Slottsgatan 118;60222;Norrköping;SE;5
Färgargården;;Värdshusgatan 8;60233;Norrköping;SE;10
Borgen;;Folkborgsvägen 22;60380;Norrköping;SE;4
Skrikhult;;Skrikhult;60570;Svärtinge;SE;5
Sörmlands Museum;;Tolagsgatan 8;61131;Nyköping;SE;4
Hamnplan;;Gert Fredrikssonsväg;61135;Nyköping;SE;5
Hjortensbergskyrkan;;Runebergsgatan 51;61137;Nyköping;SE;7
Fåfängans Trädgårdscafé;Fåfängans Trädgårdscafe;Fåfängan;61139;Nyköping;SE;5
Rosvalla A-hallen;;Idrottsvägen;61162;Nyköping;SE;6
Vibäck10 Skärgårdsscenen;;Vibäck 1;61195;Nyköping;SE;5
Oppeby Säteri;;Oppeby Säteri;61199;Tystberga;SE;5
Björklidens Festplats;;Getryggen;61274;Grytgöl;SE;5
St Botvids kyrka;;Kyrkogatan 12;61330;Oxelösund;SE;7
Söderköpings Brunn;;Skönbergagatan 35;61430;Söderköping;SE;5
Gryts Skärgårdscafe;;Rågeterdalsvägen 5;61596;Gryt;SE;5
Rodga Säteri;;Rodga Säteri;61691;Åby;SE;10
Säveskolans aula;;Säves väg 10;62146;Visby;SE;4
Wisbygymnasiets Aula;;Säves väg 10;62146;Visby;SE;4
Ica Maxi Arena;;Idrottsgatan 4;62150;Visby;SE;6
Wisby Strand;;Strandvägen 4;62155;Visby;SE;2
Gotlands Museum;;Strandgatan 14;62155;Visby;SE;4
Helge And;;Norra Kyrkogatan 3C;62155;Visby;SE;5
Sankt Clemens;;Sankt Klemensgatan 6;62155;Visby;SE;5
Sankt Görans kyrkoruin;;Munkstigen 10;62155;Visby;SE;5
Sankt Olofs kyrkoruin;;Sankt Olofs gränd 6;62155;Visby;SE;5
St. Nicolai kyrkoruin;;Smedjegatan 19;62155;Visby;SE;5
Strandgärdet Visby;;Lasarettsgatan 3;62155;Visby;SE;5
Visby Domkyrka;;Visby Domkyrka;62156;Visby;SE;7
Sankt Lars;;Sankt Lars gränd;62156;Visby;SE;5
Sankta Karin;;Stora Torget 2;62156;Visby;SE;5
Teatern, Strand Hotel;;Strandgatan 34;62156;Visby;SE;8
Almedalen;;Birgers gränd 7;62156;Visby;SE;5
Bryggarsalen;;Mellangatan 54;62156;Visby;SE;4
Kallis;;Strandgatan 2;62157;Visby;SE;3
Wisby Hof;Wisbyhof;Adelsgatan 2;62157;Visby;SE;10
Joda Bar & Kök;Joda Bar och Kök;Skeppsbron 24;62157;Visby;SE;10
Joda Bar & Kök (Innergården);Joda Bar och Kök (Innergården);Skeppsbron 24;62157;Visby;SE;5
Donners event;;Mellangatan 9;62157;VIsby;SE;4
Clarion Hotel Wisby;;Strandgatan 6;62157;Visby;SE;4
Vårdklockans Kyrka;;Adelsgatan 43;62157;Visby;SE;7
Hop Shed Brew Pub;;Broväg 119;62173;Visby;SE;10
Endre Pulkabacke (vid kyrkan);;;62177;Endre;SE;5
Källunge Gård;;KÄLLUNGE SKÄLLHORNS 158;62179;Visby;SE;5
Ammorlunda Gård;;Västergarn Ammor 166;62230;Gotlands Tofta;SE;4
Stelor;;Västergarn Stelor 117;62230;Gotlands Tofta;SE;4
Dalhem kyrka;;Dalhem prästgården 503;62256;Dalhem;SE;7
Kneippbyn;;Kneippbyn 15;62261;Visby;SE;5
Fårö Kyrka;;Fårö Svens 1075;62266;Fårö;SE;7
Tofta Beach Club;;Tofta 362;62266;Gotlands Tofta;SE;5
Grå Gåsen;;Hoburgsvägen 3;62335;Burgsvik;SE;5
Guldkaggen;;Burgsviks hamn 4;62335;Burgsvik;SE;10
Kattlunds museigård;;Grötlingbo;62338;Havdhem;SE;5
Lagerlingen;;Grötlingbo;62341;Havdhem;SE;5
Närsakarscenen;;Hammaren i När;62348;Stånga;SE;5
Gangvidefarm;;När Gangvide 503;62348;Stånga;SE;5
Hemsegården;;Jakob Gråbergsplats 4;62350;Hemse;SE;4
Pensionat Lövängen;;Storvägen 64;62365;Ljugarn;SE;5
Ardre Bygdegård;;ARDRE ANNEX 322;62366;Ljugarn;SE;5
Gammelgarns kyrka;;Gammelgarns kyrka;62367;Katthammarsvik;SE;7
Sanda Kyrka;;Sanda;62379;Sanda;SE;7
Stenkyrka Folketshus;;Stenkyrka Stenstugu 405;62442;Tingstäde;SE;4
Slite teater;;Torget 5;62448;Slite;SE;8
Hide Kulturbrott;;Hide Kulturbrott;62450;Lärbro;SE;5
Kappelshamns Veranda;;Kappelshamn Flenvikevägen 59;62455;Lärbro;SE;5
Bläse Kalkbruksmuseum;;Fleringe Bläse 325;62460;Lärbro;SE;5
Bungemuseet;;Bunge Annex 140;62464;Fårösund;SE;4
Bergmancenter;;Fårö Svens 1118;62466;Fårö;SE;4
Dämbabion;;Fårö Dämba 2080;62466;Fårö;SE;4
Svarta Fåret;;Fårö Broa 2004;62466;Fårö;SE;4
Stora Gåsemora gård;;Fårö Stora Gasmora 4200;62467;Fårö;SE;5
Sudersand Resort;;Fårö Sudersand 5650;62467;Fårö;SE;5
Sudersandsbiografen;;Fårö Sudersand 5609;62467;Fårö;SE;4
Eskilstuna Teater;;J A Selanders gata 5;63218;Eskilstuna;SE;8
Strömsholmen;;Hamngatan 15;63218;Eskilstuna;SE;5
BIFF GRILL & BAR;BIFF GRILL och BAR;CARELIIGATAN 2;63218;ESKILSTUNA;SE;10
Eskilstuna Ölkultur;;Faktorigatan 1;63220;Eskilstuna;SE;10
Rademachersmedjorna;;Rademachergatan 48-50;63220;Eskilstuna;SE;5
Biografbaren;;Järntorget 2;63220;Eskilstuna;SE;10
Royal Eskilstuna;;Järntorget 2;63227;Eskilstuna;SE;4
Lagersbergs Säteri;;Lagersbergs Säteri 3;63239;Eskilstuna;SE;4
Lokomotivet;;Verkstadsgatan 8;63342;Eskilstuna;SE;4
Klosters kyrka;;Strandgatan 20;63343;Eskilstuna;SE;7
Skensta Theater;;Skensta gård;63345;Eskilstuna;SE;8
Sörmlandsgården;;Östermalm 2;63362;Eskilstuna;SE;4
Sundbyholm;;Sundbyholm Travbana;63508;Eskilstuna;SE;5
Sundbyholms Slott;;Sundbyholms Slott;63508;Eskilstuna;SE;5
Mary´s Café Barbecue;Mary´s Cafe Barbecue;Åkerbyvägen 2;63509;Eskilstuna;SE;10
Tallåsaulan;;Läroverksgatan 1;64136;Katrineholm;SE;4
Jones antikvariat;;Spetebyhall 2;64162;Valla;SE;4
Skansenmuseet, Julita Gård;;Julita Gård;64191;Julita;SE;4
Vingåkers Folketspark;;Vikingavägen 38;64333;Vingåker;SE;5
Ugglas Park;;Storgatan 29;64531;Strängnäs;SE;5
Multeum;;Eskilstunavägen 2;64533;Strängnäs;SE;4
Mälsåker Slott;;Gula Industrihuset;64561;Stallarholmen;SE;5
Skottvångs Gruva;;Skottvångs Gruva;64792;Mariefred;SE;5
Kolhusteatern;;Bruksallén;64831;Hälleforsnäs;SE;8
Barbros brygga;;Tynäsgatan 12;65216;Karlstad;SE;5
Folkteatern Järnet;;Verkstadsgatan 1;65219;Karlstad;SE;8
Nöjesfabriken;;Karlagatan 42;65223;Karlstad;SE;6
Värmlands Museum;;Västra torggatan 31;65224;Karlstad;SE;4
Arenan;;Västra Torggatan 26;65224;Karlstad;SE;8
Scandic Winn;;Norra Strandgatan 9;65224;Karlstad;SE;4
Scalateatern;;Västra Torggatan 1;65225;Karlstad;SE;8
Mariebergsskogen;;Treffenbergsvägen 6;65229;Karlstad;SE;5
Wermland Opera, Lilla scen;;Älvgatan 49;65230;Karlstad;SE;1
BUTTON TOWN CAFÉ;BUTTON TOWN CAFe;KNAPPSTAD 515;65342;Karlstad;SE;5
Sundstaaulan;;Sävegatan 7;65463;Karlstad;SE;4
Sundsta idrottshus;;Drottning Kristinas Väg 3;65463;Karlstad;SE;4
Färjestads Travbana;;Norra Infarten 78;65465;Karlstad;SE;5
Kullens Gård;;Glumserud 305;65596;Väse;SE;5
Segmon Folkets Park;;Folketshusgatan 15;66040;Segmon;SE;4
Väse kyrka;;Kungsbacka 231;66057;Väse;SE;7
Medborgarhuset;;Magasinsgatan 2;66130;Säffle;SE;4
von Echstedtska Gården;;Västra Smedbyn;66194;Säffle;SE;5
Esters Café;Esters Cafe;Ed;66196;Långserud;SE;5
Åmål´s Blues Förening;;Kyrkogatan 10;66231;Åmål;SE;4
Skoghalls Folkets Hus;;Skogåsvägen 3;66330;Skoghall;SE;4
Borgviks gästhamn;;Kujjavägen 2;66495;Borgvik;SE;5
Bergslätts IP;;Strömstadsvägen 39;66831;Ed;SE;5
Folkets Park Arvika;;Fritidsgatan 2;67134;Arvika;SE;5
Eda FolketsPark;;Eda FolketsPark;67332;Charlottenberg;SE;5
Christinateatern;;Kungsgatan 54;68131;Kristinehamn;SE;8
Mastmagasinet;;Södra Hamngatan 5;68131;Kristinehamn;SE;10
Gattet Restaurang & Gästhamn;Gattet Restaurang och Gästhamn;Vålösundsvägen 117A;68152;Kristinehamn;SE;10
Filipstad Folkets Hus;;Viktoriagatan 8;68230;Filipstad;SE;4
HOTELL MONICA;;Folkets väg 1;68331;Hagfors;SE;4
Uddeholmsladan;;Vattenverksvägen;68340;Uddeholm;SE;4
RANSÄTERS HEMBYGDSGÅRD - GROPA;;Högsbyvägen 2;68493;Ransäter;SE;5
Torsby Finnskogscentrum;;Lekvattnet 84;68591;Torsby;SE;4
Sunne kyrka;;Kyrkogatan 1;68634;Sunne;SE;7
Hotell Alfred Nobel;;Torget 1;69131;Karlskoga;SE;4
Striker Karlskoga;;Värmlandsvägen 8;69132;Karlskoga;SE;10
Musikpalatset;;Bergrumsvägen 3;69133;Karlskoga;SE;4
Lunnedet;;Lunnedet 802;69191;Karlskoga;SE;5
Teater Nolby;;Immen 611;69191;Karlskoga;SE;8
Teatersalongen Folkets Hus;;Medborgargatan 10;69330;Degerfors;SE;8
Alléskolan;Alleskolan;Södra Allén 14;69430;Hallsberg;SE;4
Hallsbergs hembygdsgård;;Stocksättervägen 16;69435;Hallsberg;SE;4
Restaurangen Sjöängen;;Drottning Kristinas väg 2;69682;Askersund;SE;10
Norra Hunna;;Norra Hunna 371;69691;Askersund;SE;4
Pålsboda Folkets Park;;Skolgatan 1;69731;PÅLSBODA;SE;5
Örebro Konserthus;;Fabriksgatan 2;70120;Örebro;SE;2
Stadsparken;;Floragatan 1;70213;Örebro;SE;5
Betlehemskyrkan Örebro;;Sturegatan 9;70214;Örebro;SE;7
Engelbrektskolan;;Wadköpingsvägen 15;70215;Örebro;SE;4
Conventum Kongress;;Fabriksgatan 17-19;70223;Örebro;SE;4
Scandic Grand Hotel;;Fabriksgatan 21-23;70223;Örebro;SE;4
Gustavsvik;;Gustavsviksvägen 11;70230;Örebro;SE;5
Eztrad;;Sommarrovägen 24;70230;Örebro;SE;10
Scenit Kulturhus;;Järnvägsgatan 8;70362;Örebro;SE;4
Teater Martin Mutter;;Beväringsgatan 6;70365;Örebro;SE;8
Brasserie All In;;Kungsgatan 46;71130;Lindesberg;SE;10
Lindesberg Arena;;Nyborgsgatan 1;71134;Lindesberg;SE;6
Råsshallen;;50;71178;Guldsmedshyttan;SE;6
Grythyttans Kyrka;;Kyrkbacken 9;71260;Grythyttan;SE;7
Bryggerikrogen;;Prästgatan 42;71330;Nora;SE;5
Bryggerikrogen i Nora;;Prästgatan 42;71331;Nora;SE;10
Stadra Teater;;Stadra Gård 205;71392;Gyttorp;SE;8
John Scott's Kopparberg;John Scotts Kopparberg;Kristineplan 1;71435;Kopparberg;SE;5
Opera på Skäret;;Skäretvägen 111;71493;Kopparberg;SE;1
Sjökrogen;;Katrinelund 470;71592;Katrinelund;SE;5
Culturen;;Sintervägen 6;72130;Västerås;SE;4
Folkparken vid Mälaren;;Lögarängsvägen 5;72132;Västerås;SE;5
Brasserie Stadsparken;;Stora Gatan 35;72212;Västerås;SE;5
Stadsparken;;Stora Gatan 42;72212;Västerås;SE;5
Café Mosaic;Cafe Mosaic;Smedjegatan 2;72213;Västerås;SE;10
ABB Arena Syd;;Vasagatan 69;72217;Västerås;SE;6
ABB Arena Nord;;Rocklundagatan 1;72223;Västerås;SE;6
Cassels Grängesberg;;Bergsmansvägen 33;72240;Grängesberg;SE;2
Norra Björnön;;Norra Björnö 1;72348;Västerås;SE;5
Vallby friluftsmuseum;;Skerikesvägen 2;72480;Västerås;SE;5
Skultuna Hotell;;Bruksgatan 6;72631;Skultuna;SE;10
Forumteatern;;Västra Långgatan 2;73132;Köping;SE;8
Medborgarhuset;;Ahllöfsgatan 5;73230;Arboga;SE;4
Kristina Kyrka;;Borgmästare Lundbergs plan 1;73330;Sala;SE;7
Sala Stadspark;;Ekebygatan;73330;Sala;SE;5
Sala Missionshus;;Norra Esplanaden 12;73330;Sala;SE;4
Sala Folkets Park;;Ökebrogatan 3A;73336;Sala;SE;5
Skogsvallen;;Svingbolsta 410;74048;Östervåla;SE;5
Kafé Wilma;Kafe Wilma;Kyrkogatan 10;74242;Öregrund;SE;10
Öregrunds Kyrka;;Kyrkogatan 11;74242;Öregrund;SE;7
Gröna Huset;;Östergatan 11;74242;Öregrund;SE;4
Valudden Studio;;Valuddsvägen 27;74293;Östhammar;SE;4
Ellös Bio;;Glimsåsvägen 10;74492;Ellös;SE;4
Vårfrukyrkan;;Kyrkogatan;74531;Enköping;SE;7
Västerledskyrkans café;Västerledskyrkans cafe;Enöglavägen 41;74532;Enköping;SE;7
Lunda flygfält;;Bollungen 103;74791;Alunda;SE;5
Österbybruks Herrgård;;Herrgårdsvägen 1;74832;Österbybruk;SE;4
Joar Blå;;Ågatan 27;74935;Enköping;SE;4
Fröslunda Hage;;Altuna-Fröslunda 5;74971;Fjärdhundra;SE;5
Frösthults bygdegård;;Frösthult 7;74971;Fjärdhundra;SE;4
Botaniska Trädgården;;Villavägen 6-8;75238;Uppsala;SE;5
Flustret;;Flustergränd 5;75309;Uppsala;SE;3
Uppsala Konsert & Kongress;Uppsala Konsert och Kongress;Vaksala torg 1;75331;Uppsala;SE;2
Uppsala Missionkyrka;;Sankt Olofsgatan 40;75332;Uppsala;SE;7
Brantingsskolans aula;;Hjalmar Brantingsgatan 37;75434;Uppsala;SE;4
Yxlan bygdegård;;Vagnsundavägen 318;76010;Yxlan;SE;4
Blidö kyrka;;Blidö kyrkallé 24;76017;Blidö;SE;7
Hammerska Ladan;;Fagerviksbacken;76018;Furusund;SE;4
Roslagsskolans Aula;;Bältartorpsgatan 7;76128;Norrtälje;SE;4
Restaurang Havspiren;;Badstugatan 10;76140;Norrtälje;SE;10
Norrbil;;Stockholmsvägen 30;76143;Norrtälje;SE;4
Norrtälje Bränneri;;Lohärads Söderby 11;76172;Norrtälje ;SE;4
Galleri Näset, Rådmansö;;Åkerövägen 110;76194;Norrtälje;SE;4
Rimbo Kulturscen;;Rånäsvägen 26;76251;Rimbo;SE;4
Hisstech AB Arena;;Kusbyvägen 45;76335;Hallstavik;SE;5
Skebopuben;;Brobyvägen 16;76393;Skebobruk;SE;10
Gamla Hotellet;;Skebovägen 39;76393;Skebobruk;SE;10
Orangeriet Skebobruk;;Brobyvägen 19;76393;SKEBOBRUK;SE;4
Kröns Trädgård, Älmsta;;Hammarbyvägen 1;76491;Väddö;SE;4
Skattlösberg;;Skattlösberg 14;77012;Sunnansjö;SE;4
Kulturforum;;"Folketshus
Stora vägen";77060;Horndal;SE;4
Smedjan Stjärnsund;;VERKSVÄGEN 4;77071;Stjärnsund;SE;4
Aveny Folkets Hus;;Carlavägen 24;77130;Ludvika;SE;4
Brunnsviks Folkhögskola;;Brunnsvik Grangärdevägen 79;77192;Ludvika;SE;4
Gonäs Folkets hus;;Gonäsvägen 60;77194;Ludvika;SE;4
Runnbergsgården;;Södra Runnbergsvägen 5;77270;Saxdalen;SE;4
Avesta teater;;Frejgatan 9;77441;Avesta;SE;8
Folkärna Kyrka;;Folkärna Kyrkogård;77595;Folkärna;SE;7
Torp;;Torp;77596;Krylbo;SE;10
Vasateatern Hedemora;;Kyrkogatan 7;77630;Hedemora;SE;8
Theaterladan;;Gussarvsgatan 10;77630;Hedemora;SE;8
Sagateatern;;Åsgatan 61;77631;Hedemora;SE;8
Stigsbo;;Matses 207;77674;Stjärnsund;SE;5
Österby bygdegård;;Österbyn 123;77674;Stjärnsund;SE;4
Söderbärke kyrka;;Kyrkogatan 25;77760;Söderbärke;SE;7
Gagnefs Kyrka;;Kyrkbyvägen 35;78041;Gagnef;SE;7
Strandbackens Folkpark;;Strandbackens Folkpark;78044;Dala-Floda;SE;5
Skifsladan Uppsälje;;Uppsälje 101;78051;Dala-Järna;SE;4
Brånens festplats;;Hiselsvägen 10;78061;Öje;SE;5
Hotellet vid Fjället;;kyrkbyn 175;78068;Transtand;SE;4
Folkets Park;;Folkets Park;78199;Tuna-Hästberg;SE;5
Säterdalens Folkpark;;Säterdalen 6;78335;Säter;SE;5
Östra Silvbergs gruva;;Lintäktsvägen;78391;Säter;SE;5
Galaxen;;Jussi Björlings väg 25;78432;Borlänge;SE;4
Quality Hotel Galaxen;;Jussi Björlingsväg 25;78432;Borlänge;SE;4
House of Blues;;Borganäsvägen 28;78433;Borlänge;SE;10
Hagagymnasiets Aula;;Läroverksgatan;78440;Borlänge;SE;4
Rommehedslägret;;Rommehedslägret;78463;Borlänge;SE;4
Forum Kvarnsveden;;Kvarnforsplan 2;78466;Borlänge;SE;4
Floda Kyrka;;Kyrkbyvägen 2;78544;Dala-Floda;SE;7
Lindberghallen;;Södra Industrivägen 8;78561;Djurås;SE;4
Vansbro Teater;;Norra Allégatan 30;78631;Vansbro;SE;8
Storänget Nås;;Storängsvägen 14;78693;Nås;SE;5
Stora Hyttnäs;;Carl Larssonsväg 5;79015;Falun;SE;4
Dössberget;;Proselins väg 8;79021;BJURSÅS;SE;4
Rotens Trädgård;;Skovägen 8;79021;Bjursås;SE;5
Bygdegården;;Framgårdsvägen 1;79091;Idre;SE;4
Guide Arena;;Lugnetvägen 11;79131;Falun;SE;6
Nisserska teatern;;Tingshusgatan 2;79131;Falun;SE;8
Magasinet;;Tullkammaregatan 12;79131;Falun;SE;4
Heymakers;;Myntgatan 43;79160;Falun;SE;4
Samuelsdals Pensionat;;Samuelsdalsvägen 23;79161;Falun;SE;5
Kulturhuset tio14;;Teatergatan 5;79162;Falun;SE;4
Dalateatern;;Teatergatan 1;79162;Falun;SE;8
Stora Torget i Falun;;Kristinegatan 13;79171;Falun;SE;5
Lilltorpet, Faluns Folkpark;;Lilltorpsvägen 55;79194;Falun;SE;5
Lilla Helfvetet;;Älvgatan 75c;79232;Mora;SE;3
Moraparken;;Parkvägen 1;79237;Mora;SE;4
Tomteland;;Gesundabergsvägen 80;79290;Sollerön;SE;4
Vattnäs Konsertlada;;Vattnäs Byväg 38-46;79297;Mora;SE;1
Hildasholm;;Klockaregatan 5;79331;Leksand;SE;4
Leksands Kyrka;;Kyrkallén 23;79331;leksand;SE;7
Kulturskolan;;Kyrkallén 8;79331;Leksand;SE;4
Midsommarfesten;;Arenatorget 1;79331;Leksand;SE;5
Alfvéngården;Alfvengården;Tibble Pipargattu 21;79336;Leksand;SE;4
Siljansnäs kyrka;;Prästbacken 1;79370;Siljansnäs;SE;7
Hotell Klockargården;;Siljansvägen 456;79370;Tällberg;SE;4
Röda Kvarn;;Järnvägsgatan 33;79430;Orsa;SE;4
Orsa Hornberga Gård;;Nedre Hornbergavägen 27;79490;Orsa;SE;4
Folkparken Skeer;;Skeervägen 32B;79492;Orsa;SE;5
Rättviksparken;;Furudalsvägen 1;79532;Rättvik;SE;5
Gammelgården;;Sjurbergsvägen 3;79532;Rättvik;SE;5
Tältet Knektplatsen;;Tältet Knektplatsen;79532;Rättvik;SE;5
Classic Kalaset;;Enåbadsvägen 2;79532;Rättvik;SE;5
Vikarby Bystuga;;Granmorvägen 4;79570;Vikarbyn;SE;4
Dalhalla;;Sätra Dalhallavägen 201;79591;Rättvik;SE;5
Boda kyrka;;Boda Kyrkby;79596;Boda Kyrkby;SE;7
Boda Gammelgård;;Silverberg, Norra vägen 3;79596;Boda Kyrkby;SE;4
Ore Kyrka;;Vikgatan 33;79597;Furudal;SE;7
Rot Skans;;Ribbvägen 4;79690;Älvdalen;SE;5
Gävle Konserthus;;Kungsbäcksvägen 22;80267;Gävle;SE;2
Gasklockorna;;Atlasgatan 3;80286;Gävle;SE;6
Musikhuset Sjömanskyrkan;;Kyrkogatan 32;80311;Gävle;SE;10
Järnvägskrogen;;Centralplan 2C;80311;Gävle;SE;10
Gävle Teater;;Teaterplan 1;80323;Gävle;SE;8
Gävletravet;;Gavlehovsvägen 14;80633;Gävle;SE;5
Gavlehovshallen;;Gavlehovsvägen 19;80633;Gävle;SE;6
The Church;;Hyttgatan 28;81139;Sandviken;SE;10
Drömfabriken;;Sveavägen 16;81140;Sandviken;SE;4
Hotell Hedåsen;;Årsundavägen 100;81161;Sandviken;SE;10
Kulturcentrum;;Köpmansgatan 7;81180;Sandviken;SE;4
Gamla Dansbanan - Högbo;;Hans Hiertas väg 20;81192;Sandviken;SE;4
Folkets Hus och Park;;Skolgatan 21;81330;Hofors;SE;4
Aspenskolans Aula;;Palmgatan 7;81538;Tierp;SE;4
Kulturhuset Möbeln;;Grevegatan 19-21;81540;Tierp;SE;4
Gammelgården ;;Grevgatan 30;81540;Tierp;SE;4
Axmar bruk;;Axmarstig 209;81794;Axmar;SE;5
Acktjärbo;;Acktjärbo 4705;82010;Arbrå;SE;5
Kajutan;;Morängsvägen 1;82074;Stocka;SE;5
Folkets Park, Bollnäs;;Långnäsvägen 51;82142;Bollnäs;SE;5
Rengsjö Kyrka;;Västerby 7612;82158;Rengsjö;SE;7
Världsarvet Gästgivars;;Gamla Orbadenvägen 29;82167;Vallsta;SE;5
Lillbo Gårdsscen;;Lillbo 381;82299;Alfta;SE;5
Kulturhuset Glada Hudik;;Storgatan 37;82452;Hudiksvall;SE;4
Sommarscen på Ystegårn;;Hillsta 8;82462;Forsa;SE;5
Långvinds Bruk;;Långvinds Bruk;82596;Enånger;SE;5
Söderhamns Teater;;Norrtullsgatan 12;82631;Söderhamn;SE;8
Ljusdals Folkpark;;Kyrksjönäsvägen 18;82730;Ljusdal;SE;5
Svedbovallen;;Svedbovallsvägen 12;82753;Järvsö;SE;5
Storliens Högfjällshotell;;Geijerbacken 10;83019;Storlien;SE;4
Gamla Teatern;;Thoméegränd 20;83134;Östersund;SE;10
Mittuniversitetet Campus Östersund;;Kunskapens Väg 12;83140;Östersund;SE;4
Jamtli;;Museiplan 2;83152;ÖSTERSUND;SE;4
Lon Café;Lon Cafe;Bällsta 120;83293;Frösön;SE;10
Frösövallen;;Stockevägen 3;83293;Frösön;SE;4
Arnljotlägden;;Kompositörvägen 6;83296;Frösön;SE;5
Folkets hus;;Ramselevägen 6;83335;Strömsund;SE;4
Knutpunkten;;Långgatan 18;83561;Föllinge;SE;4
Krokomshallen;;Aspåsvägen 55;83580;Krokom;SE;4
Ås kyrka;;Ösavägen 8;83672;Ås;SE;7
Birka Folkhögskola, Aulan;;Birkavägen 25;83695;Ås;SE;4
Järpenbion;;Strandvägen 22;83731;Järpen;SE;4
Duved Föreningshus;;Katrinelundsvägen;83771;Duved;SE;4
Restaurang Árran på Tännäskröket;Restaurang Arran på Tännäskröket;Karl Johans väg, Krökvägen 1;84094;Tännäs;SE;10
Hamrafjället, Tänndalen;;Fäbodvägen 12;84098;Tänndalen;SE;5
Bräcke Folkets hus;;Hantverksgatan 27;84332;Bräcke;SE;4
Strömsnäs föreningshus;;Strömsnäs 151;84496;STUGUN;SE;4
Ovikens nya kyrka;;Kyrkvägen 11;84573;Oviken;SE;7
Hackås kyrka;;Kyrkvägen 11 B;84594;Hackås;SE;7
Vemdalsskalets Högfjällshotell;;Vemdalsskalet Nya landsvägen 40;84692;Vemdalen;SE;4
Folkets hus Sundsvall;Bio Drakstaden;Esplanaden 25;85121;Sundsvall;SE;4
Sundsvall Sporthall A;;Universitetsallén 11;85234;Sundsvall;SE;6
Himlabadet;;Universitetsallén 13;85234;Sundsvall;SE;5
Quality Hotel, Aveny;;Esplanaden 29;85236;Sundsvall;SE;4
EQ House;;Medborgargatan 35;85630;Sundsvall;SE;4
Nordichallen;;Johannedalsvägen 123;85634;Sundsvall;SE;6
Timrå Kyrka;;Prästgatan 1;86134;Timrå;SE;7
Härnösands Teater;;Storgatan 9;87131;Härnösand;SE;8
Murberget;;Murbergsvägen 31;87150;Härnösand;SE;5
Babelsberg, Kramfors;;Babelsbergsgatan 8;87230;Kramfors;SE;4
Kramfors Folkets Park;;Parkgatan 10;87235;Kramfors;SE;5
High Coast Distillery;;Sörviken 140;87296;Bjärtrå;SE;4
Ramsele kyrka;;Kyrkvägen 11;88370;Ramsele;SE;7
Hamnplan;;Stora Torget;89133;Örnsköldsvik;SE;5
Örnsköldsvik Kyrka;;Storgatan 29F;89134;Örnsköldsvik;SE;7
Nätra hembygdsgård;;Kyrkvägen 10;89330;Bjästa;SE;4
Själevads kyrka;;Hampnäsvägen 27;89431;Själevad;SE;7
Hembygdsgården, Anundsjö;;Prästbordet 105;89530;Bredbyn;SE;5
Nolia;;Signalvägen 3;90322;Umeå;SE;5
Dragonskolan;;Dragongatan 1;90322;Umeå;SE;4
Noliahallen;;Signalvägen 12;90322;Umeå;SE;6
Rex: Rådhuset i Umeå;;Rådhustorget 1;90326;Umeå;SE;3
Skeppsbron;;Västra Strandgatan 9;90326;Umeå;SE;5
Korskyrkan Umeå;;Sveagatan 10A;90327;Umeå;SE;7
Umeå Folkets Hus;;Skolgatan 59;90329;Umeå;SE;4
Döbelns park;;;90330;Umeå;SE;5
Kulturhuset Klossen;;Ekonomstråket 6;90730;Umeå;SE;4
Johanneskyrkan, Vännäs;;Pengsjövägen 2;91133;Vännäs;SE;7
Vännäs Medborgarhus;;Östra Järnvägsgatan 1;91181;Vännäs;SE;4
Vilhelmina Folkets Hus;;Tingsgatan 8;91233;Vilhelmina;SE;4
Nordmalings kyrka;;Kungsv. 46;91432;Nordmaling;SE;7
Bjurholms kyrka;;Kyrkogatan 3;91631;Bjurholm;SE;7
Café Storudden;Cafe Storudden;Storudden 11;91891;Sävar;SE;5
Skellefteå Riksteaterförening;;Skeppargatan 11;93130;Skellefteå;SE;4
Sara Kulturhus;;Kanalgatan 43b;93131;Skellefteå;SE;4
Cinco Skellefteå;;Stationsgatan 8;93131;Skellefteå;SE;10
Västerbottensteatern;;Kanalgatan;93131;Skellefteå;SE;8
Saratorget;;Torggatan 1;93132;Skellefteå;SE;4
Folkets Hus Skelleftehamn;;Berzeliusgatan 2;93232;Skelleftehamn;SE;4
Kurjovikens Havsmarina;;Kurjovikens Havsmarina;93233;Skelleftehamn;SE;5
Arvidsjaurs kyrka;;Storgatan;93331;Arvidsjaur;SE;7
Burträsk kyrka;;Kyrkogatan 1;93731;Burträsk;SE;7
Noliamässan;;Noliagatan 1;94131;Piteå;SE;4
Isstadion LF Arena;;Hembygdsvägen 11;94133;Piteå;SE;6
Pite Havsbad;;Hotellvägen 50;94143;Piteå;SE;5
Studio Acusticum;;Kunskapsallén 14;94163;Piteå;SE;4
Storforsens Naturscen;;Storforsens Naturreservat;94295;Vidsel;SE;5
Storstrand, Öjebyn;;Mandolingatan 1;94333;Öjebyn;SE;4
Töre Folkets hus;;Köpmanvägen 20;95040;Töre;SE;4
Strandängarna;;95231;95233;Kalix;SE;5
Haparanda folkets hus;;Åkergatan 1b;95334;Haparanda;SE;4
Karungi Kyrka;;Kyrkholmsvägen 70;95393;Karungi;SE;7
Seskarö Kyrka;;Kyrkvägen 20;95394;Seskarö;SE;7
Hägnan;;Gamla Hamngatan 21;95433;Luleå;SE;5
Brännabergets Festplats;;Brännaberget 1;95631;Överkalix;SE;5
Överluleå Kyrka;;Kyrkgatan 34;96134;Boden;SE;7
Jokkmokks nya kyrka;;Kyrkogatan 11;96231;Jokkmokk;SE;7
Vuollerim Sporthall Rimhallen;;Långgatan 5;96270;Vuollerim;SE;4
Kulturcentrum Ebeneser;;Skomakargatan 23;97231;Luleå;SE;4
Kulturens Hus;;Skeppsbrogatan 17;97231;Luleå;SE;4
Luleå domkyrka;;Kyrkplanen 1;97232;Luleå;SE;7
Södra Hamnplan;;Södra Smedjegatan 2;97235;Luleå;SE;5
Gymnasiebyns aula, Lärkan;;Skeppsbrogatan 4;97238;Luleå;SE;4
Örnäsets kyrka;;Klockgränd 1;97435;Luleå;SE;7
Isborgen Gällivare;;Hellebergsvägen;98235;Gällivare;SE;6
Bergs kyrka;;Hoverberg 426;84562;Svenstavik;SE;7
Clarion Hotel Sign;;Östra Järnvägsgatan 35;10126;Stockholm;SE;4
Hilton Stockholm Slussen;;Guldgränd 8;10465;Stockholm;SE;4
Fasching;;Kungsgatan 63;11120;Stockholm;SE;3
Oscarsteatern;;Kungsgatan 63;11122;Stockholm;SE;8
Engelen;;Kornhamnstorg 59B;11127;Stockholm;SE;3
Livrustkammaren;;Slottsbacken 3;11130;Stockholm;SE;4
Stockholm Salsa Dance;;Adolf Fredriks Kyrkogata 13;11137;Stockholm;SE;4
Playhouse Teater;;Drottninggatan 71A;11137;Stockholm;SE;8
Nalen;;Regeringsgatan 74;11139;Stockholm;SE;3
Chinateatern;;Berzelii Park 9;11147;Stockholm;SE;8
Café Opera;Cafe Opera;Karl XII:s Torg;11147;Stockholm;SE;3
Stallet - Världens Musik;;Stallgatan 7;11148;Stockholm;SE;4
Musikaliska Kvarteret;;Nybrokajen 11;11148;Stockholm;SE;2
Eric Ericsonhallen;;Kyrkslingan 2-4;11149;Stockholm;SE;4
Sankt Jacobs kyrka;;Västra Trädgårdsgatan 2A;11153;Stockholm;SE;7
Golden Hits;;Kungsgatan 29;11156;Stockholm;SE;3
Sergel Hub;;Sveavägen 10a;11157;Stockholm;SE;4
Stockholm Waterfront;;Nils Ericsons Plan 4;11164;Stockholm;SE;4
Eden;;Smedsuddsvägen 23;11235;Stockholm;SE;3
Berns;;Berzelii Park;11327;Stockholm;SE;3
Brygghuset;;Norrtullsgatan 12N;11327;Stockholm;SE;4
Sankt Johannes kyrkan;;Johannesgatan 21;11349;Stockholm;SE;7
Kafé Himlavalvet;Kafe Himlavalvet;Drottninggatan 120;11360;Stockholm;SE;5
Stockholm Stadion;;Lidingövägen;11433;Stockholm;SE;5
Skansen (Galejan);;Sollidenbacken;11521;Stockholm;SE;4
Solliden Skansen;;Sollidsbacken;11521;Stockholm;SE;5
Rosendal Garden Party;;Valmundsvägen;11521;Stockholm;SE;5
Spritmuseum;;Djurgårdsstrand 9;11521;Stockholm;SE;4
Museipiren;;Galärvarvsvägen 24;11521;Stockholm;SE;4
Josefina;;Galärvarvsvägen 10;11521;Stockholm;SE;10
Cirkusplatsen;;Sandhamnsgatan 80-90;11528;Stockholm;SE;4
Ersta kyrka;;Erstagatan 1;11630;Stockholm;SE;7
Kollektivet Livet;;Stadsgårdsterminalen;11645;Stockholm;SE;3
Mosebacketerrassen;;Mosebacke Torg 1-3;11646;Stockholm;SE;5
Debaser Strand;;Hornstulls Strand 4;11739;Stockholm;SE;3
Reimersholme Hotel;;Reimersholmsgatan 5;11740;Stockholm;SE;10
Patricia Restaurang & Nattklubb;Patricia Restaurang och Nattklubb;Söder Mälarstrand Kajplats 19;11825;Stockholm;SE;3
Biblioteket Live;;Medborgarplatsen 2;11826;Stockholm;SE;3
Baras Ställe;;Västgötagatan 4;11827;Stockholm;SE;10
Trädgården;;Hammarby Slussväg 2;11860;Stockholm;SE;3
Clarion Hotel Stockholm;;Ringvägen 98;11860;Stockholm;SE;4
Ekermanska Malmgården;;Ekermans Gränd 3-5;11867;Stockholm;SE;5
Fryshuset;;Mårtensdalsgatan 2-8;12030;Stockholm;SE;4
Copper Club;;Heliosgången 18;12030;Stockholm;SE;10
Årsta Folkets Hus;;Årsta Torg 5;12054;Årsta;SE;4
Park Folkets Hus;;Götalandsvägen 181;12535;Älvsjö;SE;4
Melodybox;;Mejselvägen 33;12638;Hägersten;SE;3
Nacka kyrka;;Gamla Värmdövägen 14A;13137;Nacka;SE;7
Kajen i Nacka Strand;;Augustendalsvägen 47-49;13152;Stockholm;SE;5
Grand Hotel Saltsjöbaden;;Hotellvägen 2;13335;Saltsjöbaden;SE;5
Porslinsteaterns Sommarscen;;Odelbergsparken;13453;Gustavsberg;SE;5
Quality Hotel Winn Haninge;;Rudsjöterrassen 3A;13640;Handen;SE;4
Haninge Kulturhus;;Poseidons Torg 8;13646;Handen;SE;4
Huddinge kulturhus;;Sjödalstorget 1;14147;Huddinge;SE;4
Subtopia;;Rotemannavägen 10;14557;Norsborg;SE;4
Hågelbyparken;;Hågelbyvägen 5;14743;Tumba;SE;5
Oktoberteatern;;Slussgatan 1;15171;Södertälje;SE;8
Solvalla;;Travbanevägen;16864;Stockholm;SE;5
Solna Folkets Hus;;Skytteholmsvägen 2;17144;Solna;SE;4
Encore Music Club;;Landsvägen 49;17265;Sundbyberg;SE;3
Pannrummet Adelsö;;Adelsö ringväg 31;17892;Adelsö;SE;4
Independent Indigenous Festival;;Skogsvillan 1;18491;Åkersberga;SE;5
Kulturumteatern;;Vikingavägen 2;19551;Märsta;SE;8
Ekhammarscenen;;Skolvägen 20;19634;Kungsängen;SE;4
Clarion Hotel Malmö Live;;Dag Hammarskjölds Torg 2;21118;Malmö;SE;4
Glasklart;;Dockplatsen 1;21119;Malmö;SE;10
Slagthuset;;Carlsgatan 12 E;21120;Malmö;SE;4
Étage;etage;Stortorget 6;21134;Malmö;SE;3
Folk Å Rock;;Skomakaregatan 11;21134;Malmö;SE;4
Palladium Malmö;;Södergatan 15;21134;Malmö;SE;4
Sankt Johannes kyrka;;Rådmansgatan 20;21146;Malmö;SE;7
Skånes Dansteater;;Östra Varvsgatan 13 A;21173;Malmö;SE;4
Grand Circus Hotel;;Södra Bulltoftavägen 51;21222;Malmö;SE;4
Inkonst;;Bergsgatan 29;21422;Malmö;SE;4
Moriska Paviljongen;;Norra Parkgatan 2;21422;Malmö;SE;3
Amiralen;;Amiralsgatan 35;21437;Malmö;SE;4
Nöjesteatern;;Amiralsgatan 35;21437;Malmö;SE;8
Plan B Malmö;;Norra Grängesbergsgatan 26B;21450;Malmö;SE;3
Varvet Limhamn;;Strandgatan 23;21612;Limhamn;SE;4
Baltiska hallen;;Eric Perssons Väg 8a;21762;Malmö;SE;6
Mejeriet;;Stora Södergatan 64;22223;Lund;SE;3
Lilla Beddinge Teater;;Ängslättsvägen 69-0;23198;Trelleborg;SE;8
Friluftsbadet;;Bökebergsgatan;23332;Svedala;SE;5
Törringelund;;Hyltarpsvägen 771-39;23392;Svedala;SE;5
Kulturboxen;;Pilgatan 13;23441;Lomma;SE;8
Skanörs kyrka;;Slottsgatan 2239 30;23930;Skanör;SE;7
Medborgarhuset Eslöv;;Kyrkogatan 1;24130;Eslöv;SE;4
Eslövs kyrka;;Västerlånggatan 50;24131;Eslöv;SE;7
Södra Rörum Kyrka;;Södra Rörum Kyrka;24294;Hörby;SE;7
Bosjökloster;;Bosjökloster 111;24395;Höör;SE;5
Kävlinge Kulturscen;;Sunnanväg 4;24438;Kävlinge;SE;4
Västra Karaby Kyrka;;Hällavägen 21;24495;Dösjebro;SE;7
Torna Hällestad Lanthandel;;Sandvägen 4;24745;Torna Hällestad;SE;10
Dalby Tingshus;;Tingsgatan 6A;24750;Dalby;SE;4
Tingstorget, Dalby;;Tingsgatan 2;24750;Dalby;SE;5
Gustav Adolfs Kyrka;;Carl Krooks gata 36;25219;Helsingborg;SE;7
Ångfärjeparken;;Hamntorget 2;25221;Helsingborg;SE;5
The Tivoli;;Köpenhamnskajen 1;25221;Helsingborg;SE;10
Röda Kvarn;;Karlsgatan 7;25224;Helsingborg;SE;4
Rockgarden;;Maskinistgatan 24;25351;Påarp;SE;10
Spritan i Ödåkra;;Fabriksgatan 2;25474;Ödåkra;SE;5
Emmagården;;Stora Vägen 145;26041;Arild;SE;4
Kvidinge hembygdshall;;Templaregatan 5;26060;Kvidinge;SE;4
Garage Bar;;Bruksgatan 36 Z;26339;Höganäs;SE;10
Grand Hotel i Mölle;;Bökebolsvägen 11;26377;Mölle;SE;10
Tomarps Kungsgård;;Tommarpsvägen 180;26572;Kvidinge;SE;5
Kulturhuset Björnen;;Trädgårdsgatan 1;26583;Åstorp;SE;4
Hjärnarps Kyrka;;Hjärnapsvägen 28;26675;Hjärnarp;SE;7
Norrviken;;Kattviksvägen 233;26991;Båstad;SE;5
Ystad Arena;;Fridhemsgatan 27;27139;Ystad;SE;6
Ystads Teater;;Sjömansgatan 13;27143;Ystad;SE;8
Björkvallen Arena;;Björkvallsvägen 79;27198;Ystad;SE;5
Scen Skåne Tranås, Klockarebacken;;Helgonvägen;27392;Skåne Tranås;SE;5
Bjärsjölagårds Slott;;Djupadalsvägen 9;27595;Bjärsjölagård;SE;4
Sövde Amfiteater;;Sövdeborgsvägen 17;27596;Sövde;SE;5
Skillinge Teater;;Möllevångsgatan 9;27660;Skillinge;SE;4
Verums Kyrka;;Verum 4103;28266;Vittsjö;SE;7
Torsjö Live;;Lilla Torsjö;28292;Västra Torup;SE;5
Markaryds Biograf;;Kungsgatan 1;28531;Markaryd;SE;4
Biljardkompaniet;;Videllsgatan 6 I;29154;Kristianstad;SE;4
Klackabackens Bryggeri;;Tegskiftesvägen 2;29173;Önnestad;SE;5
Bokelundskolans aula;;Idrottsvägen 1;29434;Sölvesborg;SE;4
Halmstad Arena;;Växjövägen 11;30244;Halmstad;SE;6
Profil Hotels Halmstad Plaza;;Anna Lindhs Plats 1;30266;Halmstad;SE;4
The Pine Ridge Brewery;;Södergatan 81;31132;Falkenberg;SE;10
Falkhallen Blackbox;;Nyhems plan 1;31135;Falkenberg;SE;4
ABF:s Trädgård;;Lasarettsvägen 11;31137;Falkenberg;SE;5
Vinbergs kyrka;;Vinbergs Kyrkby 114;31194;Falkenberg;SE;7
Falkenbergs Motorbana;;Hällarp 308;31195;Falkenberg;SE;5
Biograf Maxim;;Hästtorget 7;31230;Laholm;SE;4
Laholms Teater;;Hästtorget;31230;Laholm;SE;8
Kvarnen Kornhult;;Kornhultsvägen 24;31253;Hishult;SE;5
Ränneslövs kyrka;;Byvägen 6;31295;Laholm;SE;7
Mellby Horsepower;;Mellby 521;31296;Laholm;SE;5
Oskarströms Biograf;;Hantverksgatan 2;31331;Oskarström;SE;4
Folkparken Värnamo;;Träffgatan 12;33153;Värnamo;SE;5
Rydaholms Frikyrka;;Alvestavägen 17;33176;Rydaholm;SE;7
Scandinavian Raceway;;Box 180;33422;Anderstorp;SE;5
Kulturhuset Grand;;Olofsgatan 18;34143;Ljungby;SE;4
Garvaren Bio;;Stationsgatan 2;34160;Ljungby;SE;4
Alvesta Folkets Hus;;Allbogatan 17;34230;Alvesta;SE;4
Live! Älmhult;;Handelsvägen 6;34333;Älmhult;SE;4
Aktivitetshuset;;Ikeagatan 8;34381;Älmhult;SE;4
Kafé de luxe;Kafe de luxe;Sandgärdsgatan 19;35230;Växjö;SE;10
Palladium;;Storgatan 12;35231;Växjö;SE;4
Växjö teater;;Västergatan 11;35231;Växjö;SE;8
Kök 11;;Honnörsgatan 15;35236;Växjö;SE;10
Emmaboda Folkets Hus;;Nygatan 8;36121;Emmaboda;SE;4
Kosta Glasbruk - Hyttgården;;Glasbruksstigen 17;36543;Kosta;SE;5
Östra Piren Karlshamn;;Pirgatan 15;37435;Karlshamn;SE;5
Mörrums kyrka;;Karlshamnsvägen 6;37533;Mörrum;SE;7
Strand Hotell;;Villagatan 4;38732;Borgholm;SE;4
Fängelset;;Kålltorpsgatan 2;40261;Göteborg;SE;4
Clarion Hotel Post;;Drottningtorget 10;41103;Göteborg;SE;4
Nefertiti;;Hvitfeldtsplatsen 6;41120;Göteborg;SE;3
Musikflotten;;Fisktorget 4;41120;Göteborg;SE;9
Teater Jaguar;;Storgatan 3;41124;Göteborg;SE;8
Viiva;;Vasaplatsen 1;41126;Göteborg;SE;10
Göteborgs Vinkällare;;Götabergsgatan 22;41134;Göteborg;SE;10
PUSH;;Kungsportsavenyen 11;41136;Göteborg;SE;3
Trädgår'n;Trädgårn;Nya Allén 11;41138;Göteborg;SE;3
SURR Arena - Brewhouse;;Åvägen 24;41251;Göteborg;SE;4
Draken Live;;Järnbäraregatan 6b;41301;Göteborg;SE;8
Pustervik;;Järntorgsgatan 12;41301;Göteborg;SE;3
Hotel Draken;;Olof Palmes Plats 2;41301;Göteborg;SE;4
Oscar Fredriks kyrka;;Oscar Fredriks Kyrkogata 1 A;41317;Göteborg;SE;7
Annedalskyrkan;;Albin Holms Backa 10;41346;Göteborg;SE;7
Musikens Hus;;Djurgårdsgatan 13;41462;Göteborg;SE;3
Wine Mechanics;;Lilla Waterloogatan 10;41502;Göteborg;SE;10
Berg211;;Artillerigatan 40;41503;Göteborg;SE;4
LANDERIET BOKENÄS BALUNSEN;;Torpane 215;41597;Uddevalla;SE;5
Chihuahua;;Manufakturgatan 4;41707;Göteborg;SE;4
Tackjärnsgatan 6, Ringö;;Tackjärnsgatan 6;41707;Göteborg;SE;4
Säve Fältet;;Tuve kyrkväg;41746;Göteborg;SE;5
Frihamnen;;Frihamnen;41755;Göteborg;SE;5
Filmstudion;;Polstjärnegatan 10;41756;Göteborg;SE;4
Aftonstjärnan;;Plåtslagaregatan 2;41757;Göteborg;SE;8
Marconihallen;;Transistorgatan 5;42135;Västra Frölunda;SE;6
Torslanda Kyrka;;Torslanda Torg 10;42332;Torslanda;SE;7
Reveljen;;Skeppet Ärans väg 11;42671;Västra Frölunda;SE;10
Brännö Värdshus;;Husviksvägen 52;43085;Brännö;SE;10
Brännö Varv;;Rödstensvägen 18B;43085;Brännö;SE;4
Södra Fästningshörnan;;Södra Fästningshörnan;43244;Varberg;SE;5
Södra Fästningshörnan;;Södra fästningshörnan;43244;Varberg;SE;5
Arena Varberg;;Kattegattsvägen 26;43250;Varberg;SE;4
Majas vid Havet;;Apelvikens Strand;43253;Varberg;SE;5
Kulturum;;Gamla Kronvägen 56;43333;Partille;SE;4
Kungsbacka, Stadsdelen Valand;;Stadsdelen Valand;43432;Kungsbacka;SE;5
RUM35;;Storgatan 35;43432;Kungsbacka;SE;10
Sängfabriken;;Östergården Boråsvägen 63;43852;Rävlanda;SE;10
Gottskär Hotell;;Landstormsvägen 31;43993;Onsala;SE;4
Våfflan & Järnet;Våfflan och Järnet;Gottskärsvägen 174;43994;Onsala;SE;10
Estrad;;Bryggaregatan 2;44130;Alingsås;SE;4
Alströmerteatern;;Teatergatan 7;44155;Alingsås;SE;8
Marstrands Havshotell;;Varvskajen 2;44266;Marstrand;SE;4
Marstrands kyrka;;Drottninggatan;44267;Marstrand;SE;7
Dergårdsteatern;;Alingsåsvägen 9;44335;Lerum;SE;8
Live by Carlia;;Norra drottninggatan 26;45131;Uddevalla;SE;3
Östraboteatern;;Kämpegatan 36;45132;Uddevalla;SE;8
Kulturhuset Skagerack;;Badhusgatan 10;45230;Strömstad;SE;4
Lysekils Kyrka;;Övre Kyrkogatan 2;45330;Lysekil;SE;7
Tant Anton;;Kungshamn;45631;Kungshamn;SE;10
Havsvallen;;Havsvallen;45651;Smögen;SE;5
Charlottenlund;;Lundenvägen 11;45772;Grebbestad;SE;5
Storm Salong 1;;Nedre Långgatan 33;45793;Grebbestad;SE;4
Åhs kyrka;;Å 252;45994;Ljungskile;SE;7
Folkets Hus;;Kungsgatan 25;46131;Trollhättan;SE;4
Folkets Hus Vänersborg;;Kungsgatan 15;46233;Vänersborg;SE;4
Café Gula Huset;Cafe Gula Huset;Sörbyn 120;46464;Brålanda;SE;5
Nuntorp Gård;;Nuntorp 304;46464;Brålanda;SE;4
Badplatsen Svanesund;;Carl Von Linnés Väg 1;47231;Svanesund;SE;5
Mollösunds kyrka;;Kyrkvägen;47470;Mollösund;SE;7
Grindebacken Strandhak;;Grindebacken 551;47471;Gullholmen;SE;5
Flatö kyrka;;Flatön 141;47491;Ellös;SE;7
Nösunds Havshotell;;Boxvik 3;47496;Nösund;SE;10
Lygnevi Loge;;Lygnevivägen;51021;Sätila;SE;5
Kinna Kyrka;;Boråsvägen 41;51154;Kinna;SE;7
Folkets Park Dalsjöfors;;51630;51630;Dalsjöfors;SE;5
Kungsäter kyrka;;Präsgårsvägen 101;51992;Kungsäter;SE;7
Uport Musikweekend;;Strandgatan 7;52331;Ulricehamn;SE;5
Stenbocksskolans Aula;;Stenbocksgatan 50;52335;Ulricehamn;SE;4
Esplanadteatern;;Sockerbruksgatan 1;53140;Lidköping;SE;8
Skara Kongresshall;;Järnvägsgatan 5;53239;Skara;SE;4
Varnhemsgården;;Axvallavägen 8;53273;Varnhem;SE;4
Teaterladan i Larv;;Larv Hansagården 3;53462;Larv;SE;4
Almesåsens Festplats;;Ryda almesåsen;53496;Vara;SE;5
Mariehus arena;;Skogsvägen 6;54233;Mariestad;SE;6
Jubileumsteatern;;Nygatan 32;54239;Mariestad;SE;8
Sommar i Skeppsbron;;Syrgasvägen;55302;Jönköping;SE;5
Hasse på sjökanten;;Rekrytvägen 5;55305;jönköping;SE;5
Sofiehof Underjord;;Brunnsgatan 13;55317;Jönköping;SE;3
Jönköpings Teater;;Hovrättstorget;55321;Jönköping;SE;8
Kristine Kyrka;;Östra Storgatan 43;55321;Jönköping;SE;7
Jönköping Konsert & Kongress;Jönköping Konsert och Kongress;Elmiavägen 13;55454;Jönköping;SE;2
Equmeniakyrkan Hovslätt;;Björkbackavägen 2;55628;Hovslätt;SE;7
Nävekvarns Folkpark;;Parkvägen 7;56031;Nävekvarn;SE;5
Grännaberget;;Stadsberget 1;56391;Gränna;SE;5
Ölmstad Pingstkyrka;;Lärkstigen 8;56393;Gränna;SE;7
POs Lada;;Nåthult Brunn;56891;Skillingaryd;SE;4
Kulturhuset Pigalle;;Mariagatan 2;57131;Nässjö;SE;4
Thai festival Nässjö;;Stortorget Nässjö;57131;Nässjö;SE;5
B-fabriken;;Magasinsgatan 32;57162;Bodafors;SE;4
Brunnsparkskyrkan;;Storgatan 12;57332;Tranås;SE;7
Fyndplatsen Erikshjälpen;;Storgatan 55;57332;Tranås;SE;4
Plan B;;Västra Järnvägsgatan 13;57341;Tranås;SE;4
Tranås Stadshus;;Stadshusplan 1;57382;Tranås;SE;4
Ingarp Equmeniakyrkan;;Ingarp 23;57595;Eksjö;SE;7
Höreda kyrka;;Höreda kyrka 1;57595;Eksjö;SE;7
Rio Bio;;Stora Torget 2;57730;Hultsfred;SE;4
Aneby Folkets Park;;Bredestadsvägen 2;57831;Aneby;SE;5
Platens Bar;;Platensgatan 5;58220;Linköping;SE;10
The Crypt LKPG;;Ågatan 57;58222;Linköping;SE;4
Sagateatern;;Borgmästaregatan 9;58223;Linköping;SE;8
Equmeniakyrkan i Linköping;;Drottninggatan 22;58225;Linköping;SE;7
Dahlbergs Café;Dahlbergs Cafe;Kryddbodtorget 1;58246;Linköping;SE;5
Gamla Linköping Friluftsteatern;;Tunnbindaregatan;58246;Linköping;SE;5
Skylten;;Södra Oskarsgatan 3;58273;Linköping;SE;4
Stångebrofältet;;Gumpekullavägen;58273;Linköping;SE;5
Tornby, vid City Gross;;Norra Svedengatan 9;58273;Linköping;SE;4
Palatset;;Drottninggatan 23;58325;Linköping;SE;10
Ettringstorps loge;;Arrebo Ettringstorp 1;59014;Boxholm;SE;4
Folkets hus Motala;;Sjögatan 5;59130;Motala;SE;4
Motala saluhallen;;Prästgatan 8;59130;Motala;SE;4
Kulturakademin;;Urban Hjärnes väg 6;59130;Motala;SE;8
Motala sporthall;;Östermalmsgatan 40;59135;Motala;SE;6
Bomber Bar Motala;;Prästgatan 3;59241;Motala;SE;10
Hamnplan;;Skeppsbrokajen;59323;Västervik;SE;5
Vårfrukyrkan i Skänninge;;Västra kyrkogatan 1;59692;Skänninge;SE;7
Stora Åby Skola;;Åby Skola 1;59994;Ödeshög;SE;4
Arbis;;Bredgatan 54;60221;Norrköping;SE;4
Kulturkvarteret Hallarna;;Tunnbindaregatan 37;60221;Norrköping;SE;4
Hörsalen;;Drottninggatan 48;60232;Norrköping;SE;4
Löfstad slott;;Löfstad Slott;60597;Norrköping;SE;4
Tovastugan;;Hamnvägen 4;61131;Nyköping;SE;5
Nyköpings Teater;;Teatertorget;61131;Nyköping;SE;8
Culturum;;Hospitalsgatan 4;61132;Nyköping;SE;2
Nyköpingshus;;Vallgatan 12;61132;Nyköping;SE;5
Mårtens hus;;Östra Storgatan 38A;61132;Nyköping;SE;10
Domino Bar & Nattklubb;Domino Bar och Nattklubb;Sankt Annegatan 2;61134;Nyköping;SE;3
NK-villan;;Behmbrogatan 3;61134;Nyköping;SE;4
Kulturhuset Finspång;;Bergslagsvägen 29;61230;Finspång;SE;4
Slottsparken;;Slottsvägen;61231;Finspång;SE;5
Trollkäringeskogen, Flasbjörke;;Flasbjörke;61295;Finspång;SE;5
Fyllingarums Bygdegård;;Sandsveden 1;61493;Söderköping;SE;4
Valdemarsviks Centrum;;Centralplan;61500;Valdemarsvik;SE;5
Valdemarsvik Församlingshem;;Kyrkogatan 17;61531;Valdemarsvik;SE;4
Folkets Hus Valdemarsvik;;Storgatan 58;61532;Valdemarsvik;SE;4
Vångsten Karlslund;;Vångsten 1;61591;Valdemarsvik;SE;4
Långrådna Bygdegård;;Långrådna Bygdegård 1;61592;Valdemarsvik;SE;4
Grännäs Folkets Park;;Festplatsvägen 1;61595;Valdemarsvik;SE;5
Ekbacken Tryserum;;Ingelsbo;61595;Valdemarsvik;SE;4
Gryts Varv Restaurang,Hotel&Konferens;Gryts Varv Restaurang,HotelochKonferens;Hummelvik;61596;Gryt;SE;4
Tomtaklintskolan, Aulan;;Tomtaklintgatan 4;61933;Trosa;SE;4
Trosa Kyrka;;Viktoriagatan 30;61935;Trosa;SE;7
Tureholms Slott;;Trädgårdsmästarbostaden;61992;Trosa;SE;5
Valvet Coworking;;Kungsgatan 5;63220;Eskilstuna;SE;4
Volvo CE Arena;;Arenatorget 1;63361;Eskilstuna;SE;6
Hasselbacken Regna;;Regna;64010;Högsjö;SE;5
Bruksområdet Hälleforsnäs;;Gjutmästarbacken 1;64030;Hälleforsnäs;SE;4
Magdakullan;;Magdakullan;64397;Västra Näshulta;SE;4
Kulturhuset Saga Torshälla;;Storgatan 52;64431;Eskilstuna;SE;4
Grassagården;;Kvarngatan 2;64530;Strängnäs;SE;10
Thomas Arena;;Regementsgatan 10;64533;Strängnäs;SE;4
Björnlunda hembygdsgård, Gnesta;;Björnlunda hembygdsgård;64650;Björnlunda;SE;4
Åker Folkets Hus;;Torget 1;64752;Åkers styckebruk;SE;4
Elite Stadshotellet Karlstad;;Kungsgatan 22;65108;Karlstad;SE;4
Karlstad CCC;;Tage Erlandergatan 8;65220;Karlstad;SE;4
Sandgrundsudden;;Sandgrundsudden;65224;Karlstad;SE;5
Stora Torget;;Stora Torget;65224;Karlstad;SE;5
Inre hamn;;Tullhusgatan 1;65227;Karlstad;SE;5
Wermland Opera, Stora scen;;Malmtorgsgatan 2;65340;Karlstad;SE;1
Sola Arena;;Wittstockslingan 6;65348;Karlstad;SE;5
Molkoms folkhögskola;;Mejerivägen 3;65560;Molkom;SE;4
Upperudslogen i Molkom;;Upperudsvägen;65560;Molkom;SE;4
Rotnäs gårdsbutik;;Rotnäs 407;65593;Karlstad;SE;5
Åmåls kyrka;;Karlstadsvägen 4;66237;Åmål;SE;7
Skruvstadparken;;Skruvstadparken;66491;Grums;SE;5
Dals-Eds kyrka;;Gamla Edsvägen 39;66830;Ed;SE;7
Åmotfors Folkets Park ;;Norumsvägen;67040;Åmotfors;SE;5
Olssons Brygga;;Hamnen;67100;Arvika;SE;5
Arvika Hamnfest;;Hamnplan 1;67131;Arvika;SE;5
Ritz, Arvika;;Hamngatan 12;67131;Arvika;SE;4
Viksholmen;;Viksholmen;67132;Arvika;SE;5
Sölje Gård;;Sölje Gård 1;67191;Glava;SE;5
Alternativet;;Rackstad Nyby 1;67192;Arvika;SE;5
Jazz i Vikene;;Vikene Där Framme;67194;Brunskog;SE;5
Billingsbergs Hembygdsgård;;Billingsbergs Hembygdsgården 1;67195;Klässbol;SE;5
Sölje herrgård;;Sölje herrgård;67197;Glava;SE;5
Hillringsbergs Folketspark;;Tallåsen;67197;Glava;SE;5
Gunnevi;;Stommen Gunnevi;67198;Gunnarskog;SE;5
Årjängs Hotell;;Clara Torg 1;67231;Årjäng;SE;4
Årjängs Golfkrog;;Snarkil Golfbanan;67295;Årjäng;SE;10
Björneborg Folkets Park;;Parkplan 1;68161;Björneborg;SE;5
Herrgårdsparken Torsby Centrum;;Gräsmarksvägen 6;68533;Torsby;SE;5
Kolsnäs;;Kolsnäsvägen 4;68635;Sunne;SE;5
Berättarladan;;Parkvägen 14;68694;Rottneros;SE;8
Lilltomta Gård;;Västansjö 77;68694;Rottneros;SE;4
Mårbacka Minnesgård;;Mårbacka 42;68696;Östra Ämtervik;SE;4
Alma Löv Museum of Unexpected Art;;Smedsby 108;68696;Östra Ämtervik;SE;4
Stadsteatern Nya Folkets Hus;;Bohultsgatan;69131;Karlskoga;SE;8
Joan's Karlskoga;Joans Karlskoga;Torget 6 A;69131;Karlskoga;SE;10
Kungsteatern;;Loviselundsvägen 59;69131;Karlskoga;SE;8
Udden vid näset;;Strandparksvägen;69141;Karlskoga;SE;5
Crossfit Karlskoga;;Häsängsvägen 18;69142;Karlskoga;SE;4
Gelleråsen Arena;;Gelleråsen 654;69191;Karlskoga;SE;6
Vretstorps Folkets Park;;Vretstorps Parken;69450;Vretstorp;SE;5
Trosa Galejet;;Östra långgatan;61930;Trosa;SE;5
Clarion Hotel Örebro;;Kungsgatan 14;70211;Örebro;SE;4
Makeriet;;Kungsgatan 3;70211;Örebro;SE;10
Spelgården Wadköping;;Alsnäsgatan 11;70215;Örebro;SE;5
Hjalmar Bergmanteatern;;Olof Palmes Torg 3;70222;Örebro;SE;8
Conventum Club 700;;Drottninggatan 42;70222;Örebro;SE;4
Conventum Arena;;Fabriksgatan 26-28;70223;Örebro;SE;6
Regnbågen Brunnsparken;;Brunnslyckevägen 15;70228;Örebro;SE;5
Kulturkvarteret;;Fabriksgatan 4;70235;Örebro;SE;4
Örebro Teater;;Storgatan 1;70361;Örebro;SE;8
STÅ - Pintxos & Vänner;STÅ - Pintxos och Vänner;Slottsgatan 6;70361;Örebro;SE;10
Frimis Salonger Örebro;;Frimurarholmen;70368;Örebro;SE;10
Svampen;;Dalbygatan 4;70380;Örebro;SE;10
Humlehagen;;Tjugesta 426;70597;Glanshammar;SE;5
Folkets hus Lindesberg;;Kristinavägen 13;71130;Lindesberg;SE;4
Lindehov;;Ishockeygatan 2;71134;Lindesberg;SE;6
Stripa Gruvmiljö, Stripabryggeriet;;Gruvbackevägen 8;71178;Guldsmedshyttan;SE;4
Nora kyrka;;Prästgatan 3;71331;Nora;SE;7
Svalbo Café;Svalbo Cafe;Järle 207;71391;Nora;SE;10
Vinöns Värdshus;;Södra Vinön 721;71593;Odensbacken;SE;10
Festplatsen;;Mosebacke 7;71693;Gropen;SE;5
Dylta Bruk Herrgård;;Dyltabruk 264;71897;Dylta Bruk;SE;5
Intiman;;Sigurdsgatan 16;72130;Västerås;SE;4
Västerås Officersmäss;;Flottiljgatan 73;72131;Västerås;SE;5
Steam Hotel;;Ångkraftsvägen 14;72131;Västerås;SE;4
Västmanlands teater;;Slottsgatan 11;72211;Västerås;SE;8
Mimerscenen;;Fiskartorget;72212;Västerås;SE;5
Västerås Kongress;;Munkgatan 7;72212;Västerås;SE;4
O'Learys;O Learys;Stora Torget 2;72215;Västerås;SE;3
Västerås Domkyrka;;Västra kyrkogatan 6;72215;Västerås;SE;7
Västerås Arena;;Vasagatan 89;72223;Västerås;SE;6
Westerqwarn Pub & Restaurang;Westerqwarn Pub och Restaurang;Västerkvarnsvägen 4;73493;Kolbäck;SE;10
Thor Modéen Teatern;Thor Modeen Teatern;Drottninggatan 19;73631;Kungsör;SE;8
Mimerlavsområdet Norberg;;Gamla Banan 6;73833;Norberg;SE;5
Älvängs natur & kulturhus;Älvängs natur och kulturhus;Östa byväg 30;74045;Tärnsjö;SE;4
Knivsta CIK;;Parkvägen 31 A;74175;Knivsta;SE;4
Kvarngården;;Kvarngården;74190;Knivsta;SE;4
Strandhotellet i Öregrund;;Västergatan 1;74242;Öregrund;SE;4
Café Bredsjön;Cafe Bredsjön;Salavägen 16;74496;Järlåsa;SE;10
Skuggans Café;Skuggans Cafe;Långtora 11;74596;Enköping;SE;10
Håbo festdag;;Centrumgränd 10;74632;Bålsta;SE;5
Ottarsborgs Folkpark;;Ottarsborg 105;74895;Örbyhus;SE;5
Kesuddens Hantverksbryggeri;;Ågatan 15 c;74935;Enköping;SE;4
Kompassen;;Kaptensgatan 4;74935;Enköping;SE;4
Gamla Bion;;Uppsalavägen 11;74961;Örsundsbro;SE;4
Uppsala konstmuseum;;Drottning Christinas väg 1E;75237;Uppsala;SE;4
Polacksbacken;;Lägerhyddsvägen 2;75237;Uppsala;SE;5
Parksnäckan;;Stadsträdgården;75309;Uppsala;SE;5
Slottsbiografen;;Nedre Slottsgatan 6;75309;Uppsala;SE;4
The Social Bar & Bistro;The Social Bar och Bistro;Dragarbrunnsgatan 23;75320;Uppsala;SE;10
Katalin;;Roslagsgatan 1;75327;Uppsala;SE;3
Fyrishov;;Idrottsgatan 2;75333;Uppsala;SE;6
Kultur vid Ekoln;;Sandavägen 3;75653;Uppsala;SE;4
Restaurang Kärleksudden;;Villagatan 2;76140;Norrtälje;SE;10
Pythagoras Industrimuseum;;Verkstadsgatan 6;76143;Norrtälje;SE;4
Mobergs Nattklubb;;Vilhelm Mobergs gata 2;76146;Norrtälje;SE;3
Imperiet;;Baldersgatan 16;76150;Norrtälje;SE;4
Edsbro Bygdegård;;Edsbro Bruksgata 27;76298;Edsbro;SE;4
M A Z E;MAZE;Storgatan 9;77130;Ludvika;SE;10
Folkets Hus;;Carlavägen 24;77134;Ludvika;SE;4
Folkets park Limedsforsen;;Limedsforsen 123;78064;Lima;SE;5
Sälens Högfjällshotell;;Sälens Högfjällshotell;78067;Sälen;SE;4
Orrskogens Folkets Park ;;Parkvägen 1;78231;Malung;SE;5
Cozmoz Arena;;Engelbrektsgatan 34;78432;Borlänge;SE;4
Äteriet;;Hantverksbyn 1;78433;Borlänge;SE;10
Maximteatern;;Tunagatan 42;78433;Borlänge;SE;8
5mans bryggeri;;Mästargatan 11;78440;Borlänge;SE;4
Broken Dreams Auditorium;;Tungatan 1;78445;Borlänge;SE;4
Ängsholns Folkpark;;Ängsholsvägen 30;78530;Gagnef;SE;5
Vansbro Live;;Järnavägen 14;78633;Vansbro;SE;5
Dalarnas museum;;Stigaregatan 2-4;79160;Falun;SE;4
Sveasalen;;Sveagatan 14;79330;Leksand;SE;4
Centralteatern;;Södra Centralgatan 10;80250;Gävle;SE;8
Jerntorget;;Hyttgatan;81139;Sandviken;SE;5
Göransson Arena;;Arenavägen 4;81161;Sandviken;SE;6
Ovansjö kyrka;;Ovansjövägen 229;81240;Kungsgården;SE;7
Torsåker Bluegrass Festival;;Solbergaleden 28;81340;Torsåker;SE;5
Bergmans Fisk;;Havsvägen 38;81730;Norrsundet;SE;10
Stenegård, Järvsö;;Stenegård 4;82040;Järvsö;SE;4
Staffansgården;;Furugatan 1;82060;Delsbo;SE;4
Travrestaurangen Bollnäs.;;Edsbyvägen 131;82130;Bollnäs;SE;10
Långnäs Parken Bollnäs;;Långnäsvägen 51;82142;Bollnäs;SE;5
Kulturhuset Bollnäs;;Collinigatan 12;82143;Bollnäs;SE;4
Rehngården;;Varpnäsvägen 2;82150;Bollnäs;SE;10
Bolagsgården;;Lövvik 9156;82167;Undersvik;SE;4
Linbageriet;;Krangatan 1B;82230;Alfta;SE;10
Forsparken;;Forsparksvägen 31;82231;Alfta;SE;5
Biografteater;;Stationsgatan 11;82330;Kilafors;SE;8
Hudiksvalls teater;;Västra Tullgatan 28;82430;Hudiksvall;SE;8
Rådhusparken;;Marknadsgatan;82430;Hudiksvall;SE;5
Köpmanberget fest & event;Köpmanberget fest och event;Köpmanbergsvägen 10A;82450;Hudiksvall;SE;4
Iggesund Folkets hus;;Centralgatan 3;82530;Iggesund;SE;4
Mössöns Visfestival;;Mössön;82592;Njutånger;SE;5
Östra Berget;;Östra Bergsgatan;82632;Söderhamn;SE;5
DansPlats Skog;;Kallbäcksvägen 25;82669;Stråtjära;SE;5
Slottescenen;;Slottescenen;82734;Ljusdal;SE;8
Järvsö Kyrka;;Kyrkvägen 15;82751;Järvsö;SE;7
Storsjöteatern;;Stortorget 7;83130;Östersund;SE;8
Restaurang Marité;Restaurang Marite;Sjötorget 3;83130;Östersund;SE;10
Östersunds Sporthall;;Samuel Permans Gata 14;83141;Östersund;SE;6
Folkets Hus;;Krondikesvägen 93;83146;Östersund;SE;4
Östersund Arena;;Arenavägen 27;83191;Östersund;SE;6
Allaktivtetshuset Saga;;Storgatan 15;83324;Strömsund;SE;4
Strömsunds Hembygdsgård;;Hembygdsgården 1003;83333;Strömsund;SE;4
Tornvallen Fyrås;;Fyrås;83348;Hammerdal;SE;4
Hissmofors Folkets Hus;;Folkets Hus vägen 16;83533;Krokom;SE;4
Holiday Club;;Åre Strand;83752;Åre;SE;4
Viskansparken;;Boda 288;84013;Torpshammar;SE;5
Funäsdalens kyrka;;Berggatan 23;84095;Funäsdalen;SE;7
Herrö Trötänga;;Herrö 318;84294;Sveg;SE;5
Lillhärdals Solberga Fotbollsplan;;Solbergavägen 9;84295;Lillhärdal;SE;5
Centralen;;Casinoparken 1;85229;Sundsvall;SE;5
Club Deströyer;;Esplanaden 29;85236;Sundsvall;SE;4
Hedbergska Aulan;;Skolhusallén 6;85237;Sundsvall;SE;4
Gropen;;Hultom;87011;Hemsön;SE;5
Mannaminne;;Häggvik 109;87030;Nordingrå;SE;4
Mellanholmen;;Storgatan 11;87131;Härnösand;SE;5
Västernorrlands Museum;;Murbergsvägen 31;87150;Härnösand;SE;4
Svanö Folkets Hus;;Svanövägen 33;87293;Lunde;SE;4
Sollefteå Stadspark;;Sollefteå;88131;Sollefteå;SE;5
Prästnipans festplats;;Nipvägen;88170;Näsåker;SE;5
Lundgrens Loge;;Nordsjö 204;88291;Långsele;SE;5
Folkan Teater;;Lasarettsgatan 26;89132;Örnsköldsvik;SE;8
Nöjesbolaget;;Köpmangatan 9;89133;Örnsköldsvik;SE;4
Allstar;;Strandgatan 21;89133;Örnsköldsvik;SE;10
Ljungarocken;;Folketshusvägen 1;89198;Ljungaverk;SE;5
Herrgårdsflygelns trädgård;;Herrgårdsvägen 3;89340;Köpmanholmen;SE;5
Nolaskolans Aula;;Viktoriaesplanaden 31;89135;Örnsköldsvik;SE;4
Aula Nordica;;Universums Gränd 4;90187;Umeå;SE;4
Cinco Umeå;;Renmarkstorget 5;90326;Umeå;SE;3
Väven;;Storgatan 46A;90326;Umeå;SE;4
Umeå Folkets Hus;;Skolgatan 59;90329;Umeå;SE;4
Allstar Umeå;;Skolgatan 59;90329;Umeå;SE;10
Västra Paviljongen;;Skolgatan 67A;90329;Umeå;SE;3
Droskan;;Storgatan 60;90330;Umeå;SE;3
Tegs kyrka;;Jägarvägen 16;90420;Umeå;SE;7
Ersboda Folkets Hus;;Byttgränd 13;90627;Umeå;SE;4
Åsele Kyrka;;Centralgatan 53;91060;Åsele;SE;7
Vännäsdagarna Festivalområde;;Oskarsparken;91131;Vännäs;SE;5
Olofsfors Bruk i Hyttan;;91471;91471;Nordmaling;SE;4
Holmögården;;Holmö Byaväg;91803;Holmön;SE;5
Medborgarhuset Lycksele;;Norra Torggatan 14;92131;Lycksele;SE;4
Sjungaregården;;Blå vägen 109;92295;Granö;SE;4
Nordanåteatern;;Nordanå Kulturcentrum;93133;Skellefteå;SE;8
Norrvalla IP;;Mullbergsvägen 11A;93137;Skellefteå;SE;5
Medleforsparken;;Medleforsparken;93144;Skellefteå;SE;5
Hotell Laponia;;Storgatan 45;93333;arvidsjaur;SE;4
Restaurang Kamvägen 7;;Kamvägen 7;93731;Burträsk;SE;10
Christinasalen;;Olof Palmes gata 2;94133;Piteå;SE;8
Piteå Dansar Och Ler;;Stadsberget Piteå;94156;Piteå;SE;5
Logen Käcktjärn;;Älvsbyvägen 376;94191;Bölebyn;SE;5
Forum Älvsbyn;;Medborgargatan 2;94233;älvsbyn;SE;4
Kalix Folkets Hus;;Köpmannagatan 25;95221;Kalix;SE;4
Flakasand;;Räktjärv;95293;Kalix;SE;5
Seskarö Folkets Hus;;Fridhemsvägen 16;95394;Seskarö;SE;4
Råneå - församlingshemmets innergård;;Västerlångvägen 6;95532;Råneå;SE;5
Saga Biografen Boden;;Drottninggatan 4;96135;Boden;SE;8
Bodens Energi Arena;;Flygfältsvägen 31;96143;Boden;SE;6
Jokkmokks hembygdsgård;;Lappstavägen;96231;Jokkmokk;SE;5
Folkets Hus;;Föreningsgatan;96232;Jokkmokk;SE;4
Jokkmokk, Aja, Sparbankssalen;;962 32;96232;Jokkmokk;SE;4
Bio Norden;;Porjusvägen 8;96232;Jokkmokk;SE;4
Lärkans Aula;;Storgatan 3;97238;Luleå;SE;4
Luleå Energi Arena;;Bastugatan 6;97241;Luleå;SE;6
Aurora kultur & kongress;Aurora kultur och kongress;Stadshustorget;98185;Kiruna;SE;4
Gällivare Folkets Hus;;Hantverkaregatan 5-7;98231;Gällivare;SE;4
Saltoluokta folkmusikfestival;;Saltoluokta Fjällstation;98299;Gällivare;SE;5
Kalles Festivaltält;;Sundsgatan 35;94132;Piteå;SE;5
Christinae kyrka;;Västra Kyrkogatan 1;44130;Alingsås;SE;7
Nårunga kyrka;;Nårunga kyrka;44194;Alingsås;SE;7
Stockslyckekyrkan;;Arkitektvägen 10;44150;Alingsås;SE;7
Alnö gamla kyrka;;Alnövägen 85A;86591;Alnö;SE;7
Alnö nya kyrka;;Alnövägen 76;86591;Alnö;SE;7
Alunda kyrka;;Prästgårdsvägen 18;74730;Alunda;SE;7
Anderslövs församlingshem;;Polis Karlssons gata 2;23170;Anderslöv;SE;4
Arbrå kyrka;;Kyrkbyn 4930;82010;Arbrå;SE;7
Trefaldighetskyrkan;;Tingsgatan 26;67131;Arvika;SE;7
Bagarmossens kyrka;;Lagaplan 6;12845;Bagarmossen;SE;7
Vantörs kyrka;;Högdalsplan 16;12454;Bandhagen;SE;7
Hyby nya kyrka;;Värbygården Värbyängen 200;23364;BARA;SE;7
Berghems kyrka;;Kungskullavägen 1;51196;Berghem;SE;7
Bergsjö kyrka;;Prästvägen 1C;82950;Bergsjö;SE;7
Vadsbro kyrka;;Bettna Kyrkby;64262;Bettna;SE;7
Årdala kyrka;;Bettna Kyrkby;64262;Bettna;SE;7
Norrbo kyrka;;Norrbobyn 25;82477;Bjuråker;SE;7
Björkviks kyrka;;Prästgården;64163;BJÖRKVIK;SE;7
Everlövs kyrka;;Ängavägen 5;27563;BLENTARP;SE;7
Bollnäs kyrka;;Norra kyrkvägen 5;82130;Bollnäs;SE;7
Kvarnsvedens kyrka;;Ringargatan 67;78467;Borlänge;SE;7
Caroli församlingshem;;Skolgatan 1;50331;Borås;SE;4
Brastads kyrka;;Brastad kyrka;45491;Brastad;SE;7
Brattfors kyrka;;Kyrkovägen 14;68291;Brattfors;SE;7
Övre Ulleruds kyrka;;Övre Ulleruds kyrka;71596;Brevens Bruk;SE;7
Österbybruks kyrka;;Lillgatan 4;28992;Broby;SE;7
Sankta Birgitta kyrka;;Nockeby Kyrkväg 47;16774;Bromma;SE;7
Ivetofta kyrka;;Kyrkvägen 30;29531;Bromölla;SE;7
Bälinge kyrka;;Bindarvägen 10;74381;Bälinge;SE;7
Järna kyrka;;Strandvägen 1;78692;DALA-JÄRNA;SE;7
Degeberga kyrka;;Skaddevägen 8A;29731;Degeberga;SE;7
Delsbo kyrka;;Kyrkgränd;82470;Delsbo;SE;7
Djura kyrka;;Djura Hedbyvägen 3;79031;Djura;SE;7
Håbols kyrka;;Håbols kyrka;66891;Ed;SE;7
Rölanda kyrka;;Rölanda kyrka;66893;Ed;SE;7
Västra Eds kyrka;;Uknavägen;59474;Edsbruk;SE;7
Ekeby kyrka;;Pastorsgatan 10;26051;Ekeby Boxholm;SE;7
Ekebyhovskyrkan;;Björkuddsvägen 2;17834;Ekerö;SE;7
Sankt Martin;;Hästhagsvägen 10;58276;Ekängen;SE;7
Vårfrukyrkan;;Vårfrukyrkan;74531;Enköping;SE;7
Broddetorp kyrka;;Falköpingsvägen;52198;Falköping;SE;7
Centrumkyrkan Farsta;;Farstaplan 15;12347;Farsta;SE;7
Farstastrandkyrkan;;Brunskogsbacken 17;12371;Farsta;SE;7
Filipstads kyrka;;John Ericssonsgatan 4;68230;Filipstad;SE;7
Kyrkans hus, Fjärdhundra;;Stora Vägen 22;74970;Fjärdhundra;SE;4
Flens församlingshem;;Orrestagatan 8;64235;Flen;SE;4
Flens kyrka;;Flens kyrka;64234;Flen;SE;7
Skallsjö kyrka;;UDDAREDSVÄGEN 1;44836;FLODA;SE;7
Forsbacka kyrka;;Elisabetgatan 3;81841;Forsbacka;SE;7
Färgelanda kyrka;;Kyrkvägen 3;45831;Färgelanda;SE;7
Rydberggården;;Marknadsvägen 14;38690;Färjestaden;SE;4
Vickleby kyrka;;Kyrkgatan 3;38692;Färjestaden;SE;7
Förslövs kyrka;;Vantingevägen 9;26091;Förslöv;SE;7
Petrigården;;Församlingsvägen 12;95433;Gammelstad;SE;4
Genarps kyrka;;Kyrkovägen 11;24771;Genarp;SE;7
Hökhuvuds kyrka;;Hökhuvud;74795;Gimo;SE;7
Skäfthammars kyrka;;Kyrkvägen 6;74742;Gimo;SE;7
Glimåkra kyrka;;Kyrkogatan 1;28946;Glimåkra;SE;7
Frustuna kyrka;;Frustuna by 6;64691;Gnesta;SE;7
Grangärde kyrka;;Gamla vägen 38;77013;Grangärde;SE;7
Graninge kyrka;;Graningebruk 370;88295;Graninge;SE;7
Hörkens kyrka;;Hörken 173;77294;Grängesberg;SE;7
Grödinge kyrka;;Grödinge kyrkby;14792;Grödinge;SE;7
Gunnebo Kyrka;;Veterangatan 2;59375;Gunnebo;SE;7
Gustafs kyrka;;Enbackavägen 45;78350;Gustafs;SE;7
Gustavsbergs kyrka;;Värmdögatan 1;13431;Gustavsberg;SE;7
Bergsjöns kyrka;;Rymdtorget 5;41519;Göteborg;SE;7
Biskopsgårdens kyrka;;Vårvädersgatan 8;41831;Göteborg;SE;7
Brämaregårdens kyrka;;Hisingsgatan 26;41702;Göteborg;SE;7
Göteborgs domkyrka;;Kyrkogatan 28;41115;Göteborg;SE;7
Haga församlingshem;;Haga Östergata 30;41122;Göteborg;SE;4
Kungsladugårds kyrka;;Majgatan 2;41475;Göteborg;SE;7
Lundby nya kyrka;;Lundbygatan 2;41876;Göteborg;SE;7
Masthuggskyrkan;;Storebackegatan 15;41318;Göteborg;SE;7
Toleredskyrkan;;Vinlandsgatan 2;41727;Göteborg;SE;7
Tyska Christinae kyrka;Tyska kyrkan;Norra Hamngatan 16;41114;Göteborg;SE;7
Götene kyrka;;Kinne-Vedumsvägen 2;53331;Götene;SE;7
Kinne-Kleva kyrka;;Kinne-Kleva skola 1;53396;Götene;SE;7
Sankt Nikolai kyrka;;Kyrkogatan 11;30242;Halmstad;SE;7
Sankt Eskils kyrka;;Runstensvägen 14;13638;Handen;SE;7
Haparanda kyrka;;Kyrkplan 1;95334;Haparanda;SE;7
Enåkers kyrka;;Klockargården 101;74493;Runhällen;SE;7
Västerlövsta kyrka;;Skolgatan 2;74431;Heby;SE;7
Hedemora kyrka;;Kyrkogatan 20;77630;Hedemora;SE;7
Sankt Paulusgården;;Kyrkogatan 20;77630;Hedemora;SE;4
Levide kyrka;;Levide kyrka;62353;HEMSE;SE;7
Lojsta kyrka;;Lojsta Kyrka 1;62359;HEMSE;SE;7
Rone kyrka;;Rone kyrka;62347;Hemse;SE;7
Brunnsbokyrkan;;Brunnsbotorget 7;42242;Hisings Backa;SE;7
Hjorteds kyrka;;Prästgårdsvägen 1;59091;Hjorted;SE;7
Valla kyrka;;Valla kyrkväg 31;47172;Hjälteby;SE;7
Hofors kyrka;;Rättargatan 1;81335;Hofors;SE;7
Hortlax kyrka;;HORTLAXVÄGEN 30;94432;Hortlax;SE;7
Malmgården;;Hortlaxvägen 30;94432;Hortlax;SE;4
Hovmantorps kyrka;;Västra Kyrkogatan 2;36541;Hovmantorp;SE;7
Huddinge kyrka;;Kommunalvägen 21;14123;Huddinge;SE;7
Huddunge kyrka;;Huddunge kyrkväg 16;74492;Huddunge;SE;7
Hults församlingshem;;Kyrkbyvägen 10;57592;Hult;SE;4
Hyltebruks kyrka;;Kyrkogatan 1;31431;Hyltebruk;SE;7
Hållnäs kyrka;;Edvallavägen 16;81964;Hållnäs;SE;7
Hålta kyrka;;Hålta Annex 130;44295;Hålta;SE;7
Ubbhults kapell;;Ubbhults kapell;43895;Hällingsjö;SE;7
Härnösands domkyrka;;Franzéngatan 18;87131;Härnösand;SE;7
Hässelby Villastads kyrka;;Riddersviksvägen 116;16572;Hässelby;SE;7
Stora Hammars kyrka;;Kyrkvägen 7;23632;Höllviken;SE;7
Församlingshemmet Hölö;;Klockargården;15392;Hölö;SE;4
Hörby kyrka;;Ringsjövägen 1;24231;Hörby;SE;7
Lyby kyrka;;Lyby 3801;24293;Hörby;SE;7
Äspinge kyrka;;Äspinge 5160;24295;Hörby;SE;7
Idre kyrka;;Byvägen 29;79091;Idre;SE;7
Storsäterns Kapell;;GRÖVELDALSVÄGEN 384;79792;Idre;SE;7
Iggesunds kyrka;;Forsavägen 1;82530;Iggesund;SE;7
Ingatorps kyrka;;Storgatan 18 F;57031;Ingatorp;SE;7
Åhls kyrka;;Kyrkvägen 23;79340;Insjön;SE;7
Alfta kyrka;;Västra Kyrkogatan 9;82230;Johannesgården;SE;7
Markuskyrkan i Björkhagen;;Malmövägen 51;12153;Johanneshov;SE;7
Jokkmokks gamla kyrka;;Köpmangatan 8;96232;Jokkmokk;SE;7
Jonsereds kyrka;;Anna-stinas lid;43375;Jonsered;SE;7
Maria kyrka;;Vasavägen 25;17752;Järfälla;SE;7
Kalmar domkyrka;;Storgatan;39232;Kalmar;SE;7
Sankta Birgitta kyrka;;Villagatan 2;39351;Kalmar;SE;7
Kareby församlingshem;;Kareby Kyrkväg 110;44293;Kareby;SE;4
Karlholms kyrka;;John Lundbergs väg 25;81962;Karlholmsbruk;SE;7
Karlskoga kyrka;;Kungsvägen 38;69131;Karlskoga;SE;7
Amiralitetskyrkan;;Vallgatan 11;37130;Karlskrona;SE;7
Domkyrkan;;Västra Kyrkogatan 5;65224;KARLSTAD;SE;7
Kista kyrka;;Kista torg 2;16442;Kista;SE;7
Hemmesdynge kyrka;;Hemmesdynge byaväg 121-1;23199;Klagstorp;SE;7
Tullstorps kyrka;;Tullstorpsvägen 276-0;23198;Klagstorp;SE;7
Östra Ingelstads kyrka;;Gårdlösavägen 26;23197;Klagstorp;SE;7
Väte kyrka;;Väte Annex 3;62378;Klintehamn;SE;7
Solberga församlingshem;;Solberga 650;44298;Kode;SE;4
Ekeberga kyrka;;Stora Vägen 1A;36543;Kosta;SE;7
Djurröds kyrka;;Djurröds byväg 112;29192;Kristianstad;SE;7
Heliga Trefaldighets kyrka;;Västra Boulevarden;29129;Kristianstad;SE;7
Träne kyrka;;Träne Byaväg 128;29192;Kristianstad;SE;7
Kullavikskyrkan;;Kyvik säng 17;42930;Kullavik;SE;7
Kvidinge kyrka;;Norra Kyrkogatan 14B;26572;Kvidinge;SE;7
Sankt Clemens kyrka;;Kyrkogatan 7;31230;Laholm;SE;7
Bergs sockenstuga;;Hoverberg 426;84562;Lammhult;SE;4
Sofia Albertina kyrka;;Kungsgatan 9;26129;Landskrona;SE;7
Ramundeboda kyrka;;Kyrkogatan 6;69530;Laxå;SE;7
Tiveds kyrka;;Kyrkogatan 6;69530;Laxå;SE;7
Rämmens kyrka;;Rämmens Kyrkogård;68294;Lesjöfors;SE;7
Spannarboda kyrka;;Spannarboda 501;71194;Lindesberg;SE;7
Bankekinds kyrka;;Anders Alreiks väg 7;58593;Linköping;SE;7
Kaga kyrka;;Kaga kyrka;58599;Linköping;SE;7
Ledbergs kyrka;;Norrmalmsvägen 23;58599;Linköping;SE;7
Sankt Hans kyrka;;Ekholmens centrum 8;58911;Linköping;SE;7
Sankt Lars kyrka;;Sankt Larsgatan 25A;58224;Linköping;SE;7
Vidingsjö kyrka;;Vidingsjö by 2;58739;LINKÖPING;SE;7
Ljungby kyrka;;Märta Ljungbergsvägen 9;34135;Ljungby;SE;7
Tutaryds kyrka;;Tutaryd 2;34196;Ljungby;SE;7
Ljusdals kyrka;;Ljusdals kyrka;82730;Ljusdal;SE;7
Lomma kyrka;;Prästbergavägen 71;23435;Lomma;SE;7
Ludvika Ulrika kyrka;;Dan Anderssons gata 2;77131;Ludvika;SE;7
Bergnäskyrkan;;Höträskvägen 2-4;97251;Luleå;SE;7
Sörbyakyrkan;;Knalltorpsvägen 2;97593;Luleå;SE;7
Maria Magdalena kyrka;;Flygelvägen 1;22472;Lund;SE;7
Samarbetskyrkan Sankt Knut;;Linero torg 12;22476;Lund;SE;7
Sankt Hans kyrka;;Fäladstorget 32;22658;Lund;SE;7
Ledsjö kyrka;;Ledsjö kyrka 1;53392;Lundsbrunn;SE;7
Lysviks kyrka;;Gamla vägen 29;68697;LYSVIK;SE;7
Åbygården;;Lundgatan 1;39597;Läckeby;SE;4
Löddeköpinge kyrka;;Ådalsvägen 12;24635;Löddeköpinge;SE;7
Löderups kyrka;;Österlenvägen 808;27177;Löderup;SE;7
Västra Torsås kyrka;;Lönashultsvägen 44;34253;Lönashult;SE;7
Lövstabruks kyrka;;Västra Gatan 32;81966;Lövstabruk;SE;7
Hyllie kyrka;;Gamlegårdsvägen 34;21620;Malmö;SE;7
Sankt Pauli kyrka;;Långbergsgatan 14;63353;Malmö;SE;7
Yttermalungs kapell;;KYRKVÄGEN 28;78230;MALUNG;SE;7
Eks kyrka;;Ullervadsvägen 2;54294;Mariestad;SE;7
Marieholmskyrkan;;Älgstigen 1;54244;Mariestad;SE;7
Ullervads kyrka;;Ullervadsvägen 2;54273;Mariestad;SE;7
Mellösa kyrka;;Harpsundsvägen 15;64263;Mellösa;SE;7
Godegårds kyrka;;Godegård 262;59198;Motala;SE;7
Motala kyrka;;Sjögatan 2;59130;Motala;SE;7
Foss kyrka;;Fossvägen 7;45532;Munkedal;SE;7
Munkfors kyrka;;Kyrkogatan;68430;Munkfors;SE;7
Mölle kapell;;Kullabergsvägen 65;26377;Mölle;SE;7
Fässbergs kyrka;;Terrakottagatan 3B;43142;Mölndal;SE;7
Stensjökyrkan;;Gunnebogatan 18;43166;Mölndal;SE;7
Toltorpskyrkan;;Dalgångsgatan 2;43139;Mölndal;SE;7
Mörarps församlingshem;;Brandmansgatan 3;25355;Mörarp;SE;4
Mörbylånga församlingshem;;Kyrkbyn 122 A;38651;Mörbylånga;SE;4
Nordingrå sockenstuga;;Vallenvägen 6;87030;Nordingrå;SE;4
Nordmarks kyrka;;Kyrkogatan 2;68293;Nordmarkshyttan;SE;7
Norra Åsums kyrka;;Esbjörn Mules väg 7B;29163;Norra Åsum;SE;7
Norrala kyrka;;Prästgården 918;82694;Norrala;SE;7
Hedvigs kyrka;;Tyska torget 1;60224;Norrköping;SE;7
Sankt Johannes kyrka;;Hagebygatan 77;60352;Norrköping;SE;7
Sankt Olai kyrka;;Skolgatan 12;60225;Norrköping;SE;7
Skogängsgården;;Wilhelm Wibergs gata 176;60377;Norrköping;SE;4
Ljusets kyrka;;Tomtbergavägen 16;14567;Norsborg;SE;7
Nykroppa kyrka;;Kyrkovägen 1;68290;Nykroppa;SE;7
Lids kyrka;;Lids kyrka;61191;Nyköping;SE;7
Ådals-Lidens kyrka;;Pelle Molins väg;88170;Näsåker;SE;7
Vinöns missionshus;;Södra Vinön 143;71593;Odensbacken;SE;4
Onsala kyrka;;Prästgårdsvägen 16;43931;Onsala;SE;7
Kristinebergskyrkan;;Ingenjörsvägen 18;57261;Oskarshamn;SE;7
Oskarshamns kyrka;;Kyrkoallén 1;57255;Oskarshamn;SE;7
Adventskyrkan Hjortkvarn;;Kyrkvägen 5;69793;Hjortkvarn;SE;7
Pålsboda kyrka;;Folkasbovägen 1;69731;Pålsboda;SE;7
Sköllersta kyrka;;Sockenvägen 20;69774;Sköllersta;SE;7
Svennevads kyrka;;Svennevads kyrka;69792;Pålsboda;SE;7
Ransäters kyrka;;Erlandervägen 8;68493;Ransäter;SE;7
Brevens kyrka;;Brevens kyrka;88031;Resele;SE;7
Fasterna kyrka;;Fasterna Kyrkväg 12;76296;Rånäs;SE;7
Grimetons kyrka;;Karsavägen 2;43298;Grimeton;SE;7
Hunnestads kyrka;;Hunnestads by 31;43291;Varberg;SE;7
Nösslinge kyrka;;Nösslinge kyrka;43299;Skällinge;SE;7
Skällinge kyrka;;Klockvägen 2;43299;Skällinge;SE;7
Rosersbergs församlingsgård;;Rosersbergsvägen 38;19571;Rosersberg;SE;4
Skånela kyrka;;Skånela kyrka;19596;Rosersberg;SE;7
Rydebäcks kyrka;;Frösögatan 1;25730;Rydebäck;SE;7
Katslösa kyrka;;Katslösa 115;27462;Rydsgård;SE;7
Agunnaryds kyrka;;Brånavägen;34177;Agunnaryd;SE;7
Ryssby kyrka;;Kyrkogatan 1;34176;RYSSBY;SE;7
Rättviks kyrka;;Kyrkvägen 11;79532;Rättvik;SE;7
Uppenbarelsekyrkan;;Kyrkplan 1;13334;Saltsjöbaden;SE;7
Stensätrakyrkan;;Sandstensvägen 45;81152;Sandviken;SE;7
Segeltorps kyrka;;Kapellvägen 9;14170;Segeltorp;SE;7
Mariakyrkan;;Olofsgatan 2;19330;Sigtuna;SE;7
Upphärads kyrka;;Torpavägen 10;46178;SJUNTORP;SE;7
Björka kyrka;;Björka kyrkoväg 5;27594;Sjöbo;SE;7
Ilstorps kyrka;;Ilstorps byaväg 16;27593;Sjöbo;SE;7
Södra Åsums kyrka;;Södra Åsumsvägen 7;27591;Sjöbo;SE;7
Östra Klagstorps kyrka;;Klagstorps k:a;27595;Sjöbo;SE;7
Skara domkyrka;;Järnvägsgatan 1;53230;Skara;SE;7
Skånings-Åsaka kyrka;;Skånings-åsaka Hertigabo 1;53296;Skara;SE;7
Stenums kyrka;;Skara Ö;53294;Skara;SE;7
Varnhems klosterkyrka;;Varnhems klosterkyrka;53273;Varnhem;SE;7
Gunnilbo kyrka;;Gunnilbo kyrka;73992;Skinnskatteberg;SE;7
Skinnskattebergs kyrka;;Kyrkvägen 3;73931;SKINNSKATTEBERG;SE;7
Ljuders kyrka;;LJUDERS PRÄSTGÅRD 117;36053;Skruv;SE;7
Slimminge kyrka;;Slimminge kyrka;27492;Skurup;SE;7
Katarinakapellet i Skyttorp;;Uggelbovägen 1;74394;Skyttorp;SE;7
Stora Sköndals kyrka;;Hjalmar Danells väg 1;12864;Sköndal;SE;7
Däldernas kapell;;Kapellvägen 66;54947;Skövde;SE;7
Sankta Helena kyrka;;Hertig Johans gata 14;54130;Skövde;SE;7
Smedstorps kyrka;;Gårdlösavägen 26;27398;Smedstorp;SE;7
Östra Broby kyrka;;Kyrkogatan 6;28941;Broby;SE;7
Magra kyrka;;Bjärlandavägen 100;46692;Sollebrunn;SE;7
Stora Mellby kyrka;;Prästvägen 33;46694;Sollebrunn;SE;7
Eds församlingsgård;;Ed 301;88194;Sollefteå;SE;4
Multrå kyrka;;Multrå kyrkobord 305;88192;Sollefteå;SE;7
Sollefteå kyrka;;Kyrkvägen 20;88134;Sollefteå;SE;7
Sånga kyrka;;Sånga 160;88192;Sollefteå;SE;7
Ådalsbyn;;Hembygdsvägen 12;88140;Sollefteå;SE;4
Sorunda kyrka;;Kyrkgatan 26;14870;Sorunda;SE;7
Hyltinge kyrka;;Hyltinge kyrka;64991;Sparreholm;SE;7
Herman Palmsalen;;Herman Palms plan 4;17960;Stenhamra;SE;4
Finska kyrkan;;Slottsbacken 2B;11130;Stockholm;SE;7
Hedvig Eleonora kyrka;;Storgatan 7;11451;Stockholm;SE;7
Katarina kyrka;;Högbergsgatan 13;11620;Stockholm;SE;7
Sjöstadskapellet;;Lugnets allé 46;12066;Stockholm;SE;7
Lungsunds kyrka;;Lungsunds kyrka;68891;Storfors;SE;7
Storfors kyrka;;Kyrkogatan 5;68830;Storfors;SE;7
Strängnäs domkyrka;;Domkyrkan 1;64530;Strängnäs;SE;7
Strövelstorps kyrka;;Prästgårdsvägen 42;26270;STRÖVELSTORP;SE;7
Stånga kyrka;;Stånga kyrka;62360;Stånga;SE;7
Sundbybergs kyrka;;Rosengatan 15;17270;SUNDBYBERG;SE;7
Svalövs kyrka;;Svalövs kyrka;26821;Svalöv;SE;7
Sätila kyrka;;Kyrkstallsvägen 2;51169;SÄTILA;SE;7
Sankta Ragnhilds kyrka;;Mälaregatan 6;15171;Södertälje;SE;7
Sövde kyrka;;Sövdeborgsvägen 15;27596;Sövde;SE;7
Fjällbacka kyrka;;Kvillevägen 4;45732;Tanumshede;SE;7
Tavelsjö kyrka;;Strandvägen 40;90262;Tavelsjö;SE;7
Teckomatorps församlingshem;;Föreningsgatan 2;26871;Teckomatorp;SE;4
Nathanaelgården;;Ringgatan 1;81537;Tierp;SE;4
Söderfors kyrka;;Tierpsgården Backbrovägen 3;81591;TIERP;SE;7
Tolfta kyrka;;Ersta 817;81592;Tierp;SE;7
Låstads kyrka;;Ullervadsvägen 2;54195;Timmersdala;SE;7
Tegelsmora kyrka;;Tegelsmora 315;74896;Tobo;SE;7
Torpshammars kyrka;;FRÄNSTAVÄGEN 299;84175;Torpshammar;SE;7
Fryksände kyrka;;Kyrkogatan 26;68522;Torsby;SE;7
Torshälla kyrka;;Kyrkogatan 1;66431;Torshälla;SE;7
Amhults kyrka;;Gamla flygplatsvägen 23;42337;Torslanda;SE;7
Torslanda församlingshem;;Torslanda Torg 10;42332;Torslanda;SE;4
Tranemo församlingshem;;Kyrkogatan 2;51432;Tranemo;SE;4
Traryds kyrka;;Kyrkvägen 9;28772;TRARYD;SE;7
Bösarps kyrka;;Bösarps kyrka;23191;Trelleborg;SE;7
Gislövs kyrka;;Gislövs kyrka;23191;Gislöv;SE;7
Sankt Nicolai kyrka;;Norregatan 14;23143;Trelleborg;SE;7
Spannarps kyrka;;Himlevägen 36;43277;Tvååker;SE;7
Tvååkers kyrka;;Kyrkogatan 18;43278;TVÅÅKER;SE;7
Tibble kyrka;;Attundavägen 3;18323;TÄBY;SE;7
Töreboda kyrka;;Töreboda kyrka;54523;TÖREBODA;SE;7
Ulricehamns kyrka;;Västra Kyrkogatan;52330;Ulricehamn;SE;7
Carlskyrkan;;Kvartsvägen 1;90741;Umeå;SE;7
Västerslättskyrkan;;Timotejvägen 2;90352;Umeå;SE;7
Ålidhemskyrkan;;Studentvägen 2;90738;Umeå;SE;7
Boteå kyrka;;Västerhällan 212;88195;Undrom;SE;7
Uppsala domkyrka;;Domkyrkoplan;75310;Uppsala;SE;7
Vadstena klosterkyrka;;Lasarettsgatan 5;59230;Vadstena;SE;7
Vallda kyrka;;Vallda Kyrkbyväg 8;43490;Vallda;SE;7
Frösunda kyrka;;Frösunda-Prästgård 4;18695;Vallentuna;SE;7
Markims kyrka;;Markims kyrkväg 9;18693;Vallentuna;SE;7
Orkesta kyrka;;Orkesta kyrka;18694;Vallentuna;SE;7
Fjärestads kyrka;;Fjärestadsvägen 290;25342;Vallåkra;SE;7
Varbergs kyrka;;Kyrkogatan 2;43141;Varberg;SE;7
Tensta kyrka;;Tensta 20;74393;Vattholma;SE;7
Församlingsgården Vaxholm;;Hamngatan 25;18521;Vaxholm;SE;4
Vaxholms kyrka;;Kungsgatan 6;18534;Vaxholm;SE;7
Vikens kyrka;;Pontus Ols väg 1;26331;Viken;SE;7
Lindärva kyrka;;Lindärva kyrka;53191;VINNINGA;SE;7
Träkumla kyrka;;Träkumla kyrka;62194;Visby;SE;7
Vrena församlingshem;;Vrena kyrkväg;61173;VRENA;SE;4
Kullings-Skövde kyrka;;Stockholmsvägen 29;44732;Vårgårda;SE;7
Väckelsångs kyrka;;Gamla vägen;36251;Väckelsång;SE;7
Sankt Tomas kyrka;;Kirunagatan 9;16268;Vällingby;SE;7
Vänersborgs kyrka;;Kyrkogatan 26;46230;Vänersborg;SE;7
Odensåkers kyrka;;Odensåker Logården 1;54996;Väring;SE;7
Värmdö kyrka;;Värmdövägen 55-57;13950;Värmdö;SE;7
Värnamo kyrka;;Kyrkogatan 17;33131;Värnamo;SE;7
Bua kyrka;;Hultavägen 13;43264;Bua;SE;7
Stråvalla kyrka;;Stenviksvägen 13;43265;VÄRÖBACKA;SE;7
Värö kyrka;;Vallavägen;43265;VÄRÖBACKA;SE;7
Sankt Petri kyrka;;Göran Olsgatan;21122;Malmö;SE;7
Sankt Petri kyrka;;Östra Kyrkogatan 67;59333;Västervik;SE;7
Mikaelikyrkan;;Hammarbacksvägen 1;72467;Västerås;SE;7
Älvsborgs församlingshem;;Hagens Kapellväg 6;42671;Västra Frölunda;SE;4
Växjö domkyrka;;Linnégatan 2A;35233;Växjö;SE;7
Öjaby kyrka;;Helgövägen 4;35250;Växjö;SE;7
Åhus Sankta Maria kyrka;;Torget 15;29631;Åhus;SE;7
Enslövs kyrka;;Kyrkvägen 34;31395;Åled;SE;7
Skavböke kapell;;Skavböke 571;31392;Oskarström;SE;7
Holmedals kyrka;;Holmedals prästgård;67294;Årjäng;SE;7
Silbodals kyrka;;Storgatan 8;67231;Årjäng;SE;7
Björnekulla kyrka;;Järnvägsgatan 24;26531;Åstorp;SE;7
Älmeboda kyrka;;Gamla vägen 9;36298;Älmeboda;SE;7
Älmhults kyrka;;Norra Klöxhultsvägen 3;34336;Älmhult;SE;7
Älvdalens kyrka;;Dalgatan 80;79631;Älvdalen;SE;7
Brännkyrka kyrka;;Götalandsvägen 191;12535;Älvsjö;SE;7
Barkåkra kyrka;;Barkåkravägen 199;26291;Ängelholm;SE;7
Skäldervikens församlingshem;;Källvägen 4;26261;Ängelholm;SE;4
Ödsmåls kyrka;;Ödsmåls kyrkväg 1;44495;Ödsmål;SE;7
Adolfsbergs kyrka;;Glomman 127;70230;Örebro;SE;7
Gamla kyrkan Mikael;;Hjärstavägen 33;70358;Örebro;SE;7
Mosjö församlingshem;;Prästgårdsvägen 34;70233;Örebro;SE;4
Örnsköldsviks kyrka;;Storgatan 29F;38290;Örnsköldsvik;SE;7
Giresta kyrka;;Giresta kyrka;74962;Örsundsbro;SE;7
Mariakyrkan;;Ängsvägen 8;74960;Örsundsbro;SE;7
Örsjö kyrka;;Växjövägen 2;74832;Österbybruk;SE;7
Gamla kyrkan;;Kyrkgatan 41;83134;Östersund;SE;7
Stora kyrkan;;Rådhusgatan 45;83136;Östersund;SE;7
Östra Kärrstorps församlingshem;;Östra Kärrstorpsvägen 369;59096;Överum;SE;4
Övraby kyrka;;Gårdlösavägen 26;66721;Övre Ullerud;SE;7
Resele kyrka;;Resele kyrka;88031;Resele;SE;7
Byagården Runemo;;Kasernvägen 14;82292;Alfta;SE;4
Alingsås Teaterförening;;Nygatan 18;44130;Alingsås;SE;4
Rosenhagen;;Landsvägen 2229;23170;Anderslöv;SE;4
Stadskällaren;;Nygatan 42;73230;Arboga;SE;10
Lilla Teatern i Axmarby;;Axmarstig 74;81794;Axmar;SE;8
Åkerö slott;;Åkerö slott;64297;Bettna;SE;4
Hörsalen;;Folkungavägen 8;23734;Bjärred;SE;4
Hörsalen Bjärehovskolan;;Lingvägen 17;23734;Bjärred;SE;4
Wasabryggeriet;;Sveagatan 1;78433;Borlänge;SE;4
Boxholms kyrka;;Hjortstigen 2;59013;Boxholm;SE;7
Branteviks Idrottsplats;;Hylkavägen 10;27238;Brantevik;SE;5
MårtenPers Scen;;MårtenPers Källa;27292;Brantevik;SE;4
Svea bio Delsbo;;Köpmangatan 14;82471;Delsbo;SE;4
RältaGården;;Djura Hissenvägen 1;79393;Djura;SE;4
Kolsebro Kulturverkstad;;ALBERTSSONGÅRDEN;59475;Edsbruk;SE;4
Restaurang Jungfrusund;;Bryggavägen 133;17851;Ekerö;SE;10
Rosenhills Trädgård och Musteri;;Nyckelbyvägen 22;17890;Ekerö;SE;10
Neonparken;;Rasslebygd 201;36133;Emmaboda;SE;5
Torslund;;Hällberga;63519;Eskilstuna;SE;5
Brasseriet Plantis;;Sankt Olofsgatan 23;52143;Falköping;SE;10
Wrågården Restaurang;;Friggeråker Wrågården;52196;Falköping;SE;10
Gamla Elverket;;Ölandsgatan 8;79160;Falun;SE;4
Gården Kämpersvik;;HELJERÖD 3;45071;Fjällbacka;SE;4
Fjärås Bygdegård;;Tostaredsvägen 219;43974;Fjärås;SE;4
Floda lada;;Floda allé 4;44830;Floda;SE;4
Mariehöjd Smørrebrøds Café;Mariehöjd Smörrebröds Café;Drängseredsvägen 36;44835;Floda;SE;10
Allhem;;Allhemsvägen 22;45832;Färgelanda;SE;5
Sörfjärdens Kapell;;Strandvägen 5;82962;Gnarp;SE;7
Falkeröd Café & Ladan ;Falkeröd Cafe och Ladan ;Falkerödsvägen 8;45772;Grebbestad;SE;10
Grisslehamns kapell;;Grisslehamns kapell;76456;Grisslehamn;SE;7
Dansscenen Grännaberget;;Stadsberget 3;56391;Gränna;SE;5
Uppgränna Byagård;;Uppgränna 18;56391;Gränna;SE;4
Mossviken Vänna;;Mossviken Vänna;66693;Gustavsfors;SE;5
Cafe Udden;;Benedicks väg 5;81197;Gysinge;SE;10
Betlehemskyrkan Göteborg;;Erik Dahlbergsgatan 11b;41126;Göteborg;SE;7
Whoopsi Daisy;;Wieselgrensplatsen 11;41739;Göteborg;SE;10
Frilagret;;Heurlins Plats 1;41301;Göteborg;SE;4
Gathenhielmska huset;;Stigbergstorget 7;41463;Göteborg;SE;4
Göteborgs universitet;;Universitetsplatsen 1;40530;Göteborg;SE;4
Haket;;Masthuggstorget 5;41327;Göteborg;SE;10
Hängmattan;;Karl Johansgatan 16;41459;Göteborg;SE;10
Klangverket;;Varholmsgatan 6;41474;Göteborg;SE;4
Lindholmspiren;;Lindholmspiren;41756;Göteborg;SE;5
Lyckholms Restaurang;;Nellickevägen 22;41263;Göteborg;SE;10
M/S Götapetter;MS Götapetter;Gullbergs Strandgata 15;41104;Göteborg;SE;9
Mosaik konstcafé;Mosaik konstcafe;Brämaregatan 13;41703;Göteborg;SE;10
Oceanen;;Stigbergstorget 8;41463;Göteborg;SE;4
Pråmenaden ;;Fisktorget 4;41120;Göteborg;SE;10
Redbergsteatern;;Örngatan 6;41667;Göteborg;SE;8
Rockbaren;;Kristinelundsgatan 14;41136;Göteborg;SE;3
Rollin Bistros Backyard;;Väverigatan 5;41511;Göteborg;SE;10
Scandic Crown;;Polhemsplatsen 3;41111;Göteborg;SE;4
Skeppet GBG;;Amerikagatan 2;41463;Göteborg;SE;10
TaKeT Rooftop Bar;;Skeppsbroplatsen 1;41121;Göteborg;SE;10
Teater Buratino;;Torpagatan 2;41674;Göteborg;SE;8
Utopia Jazz;;Karl Johansgatan 6;41459;Göteborg;SE;10
Vega Bryggeri;;Manufakturgatan 2;41707;Göteborg;SE;10
Visage dinnerclub ;;Kristinelundsgatan 16;41875;Göteborg;SE;10
Bergby Gård & Logi;Bergby Gård och Logi;Bergby 1;76394;Hallstavik;SE;4
Kafé Heagård;Kafe Heagård;HEAGÅRDS EGENDOM 303A;30591;Halmstad;SE;10
Fredrika Bremergymnasiet;;Dalarövägen 64;13646;Handen;SE;4
Gula Villan;;Folkparken 17;13640;Handen;SE;4
Sankta Anna kyrka;;Johan Banérs gata 65;25454;Helsingborg;SE;7
House of Possibilitas;;Granåsgatan 2;42244;Hisings Backa;SE;4
Bunker bar;;Ekevägen;34293;Hjortsberga;SE;3
Bertas Pizzeria;;Stora Vägen 63;77467;Horndal;SE;10
Teaterträdgården;;Smedbygatan 1-10;56141;Huskvarna;SE;5
Upperuds Sluss;;Upperudsvägen;46472;Håverud;SE;5
Gröndals kyrka;;Gröndalsvägen 61;11768;Hägersten;SE;7
Konstenskap Yard;;Hägerstensvägen 301;12941;Hägersten;SE;4
Mälarhöjdens kyrka;;Sporrgränd 1;12942;Hägersten;SE;7
Uppenbarelsekyrkan;;Bäckvägen 34;12647;Hägersten;SE;7
VERKETS MATSAL;;Västberga Allé 60;12630;Hägersten;SE;10
WIP:sthlm;WIP sthlm;Västbergavägen 26;12630;Hägersten;SE;4
Folkets Hus ;;Backlyckevägen 2A;53374;Hällekis;SE;4
Backagårdens Kurs & Konferenscenter;Backagården;STENSKOGEN 735;24391;Höör;SE;4
Munkarpsgården;;Munkarp 102;24391;Höör;SE;4
Afrika Sthlm;;Hallvägen 43;12162;Johanneshov;SE;10
Arenagången 29;;Arenagången 29;12177;Johanneshov;SE;4
Arenavägen 75;;Arenavägen 75;12177;Johanneshov;SE;4
Colosseum Nightclub;;Arenavägen 75;12177;Johanneshov;SE;3
Guldfabriken studios;;Lindetorpsvägen 21;12163;Johanneshov;SE;4
Kvarteret;;Styckmästargatan 10;12162;Johanneshov;SE;5
O'Learys Tolv Tele2 Arena;O Learys Tolv Tele2 Arena;Arenavägen 69;12177;Johanneshov;SE;10
Hovrättstorget;;Hovrättstorget;55321;Jönköping;SE;5
TullHuset;;Hamnpiren;55315;Jönköping;SE;10
Bakgården;;Kasernhöjden 6B;65339;Karlstad;SE;5
Claesson's andra;Claessons andra;Sommargatan;65637;Karlstad;SE;10
Gränden Käk & Bärs;Gränden Käk och Bärs;Tynäsgatan 12;65224;Karlstad;SE;10
Bruksholmen i Forssjö;;Bruksvägen 17;64193;Katrineholm;SE;10
Pinchos Katrineholm;;Hantverkaregatan 2;64130;Katrineholm;SE;10
Wanås Konst;;Vanås;28990;Knislinge;SE;4
Evenemangsområdet Norra Åsum;;Magnus Stenbocks väg 29;29191;Kristianstad;SE;5
Österslövs bygdegård;;Kälkestadsvägen 17;29194;Kristianstad;SE;4
Hardemo Bygdegård;;Nälberg 216;69293;Kumla;SE;4
Vadbinderiet;;Lindeviksvägen 10;47551;Källö-knippla;SE;10
Kärna bygdegård;;442 70 Kärna;44270;Kärna;SE;4
Klintagården;;Klinta Bodars väg 8;38750;Köpingsvik;SE;5
Bergs Bygdegård;;Bergs Bygdegård;36394;Lammhult;SE;4
Smörtaxen;;Slottet 14;26131;Landskrona;SE;10
Ladugård Live;;Larv Sörgården 5;53462;Larv;SE;4
Stenhammarkyrkan;;Brynåsavägen 7;53156;Lidköping;SE;7
Teaterns Hus;;Snickaregatan 2;58226;Linköping;SE;8
Sjöviksgården;;Storvägen 28;62365;Ljugarn;SE;4
Lomma Folkets Hus;;Strandvägen 120;23432;Lomma;SE;4
LommaFlotten;;Kajgatan 1;23440;Lomma;SE;9
Kulturen i Lund;;Tegnérsplatsen 6;22350;Lund;SE;4
Råbylunds Gård;;Prästavägen 12;22478;Lund;SE;10
Scandic Star Lund;;Glimmervägen 5;22478;Lund;SE;4
Tegnérs Matsalar;;Sandgatan 2;22350;Lund;SE;10
Lödöse bibliotek;;Museivägen 1;46371;Lödöse;SE;4
Bio Panora;;Friisgatan 19D;21421;Malmö;SE;4
Brogatan;;Brogatan 12;21144;Malmö;SE;10
Grand Malmö;;Monbijougatan 17;21153;Malmö;SE;10
Lilla Kafferosteriet;;Baltzarsgatan 24;21136;Malmö;SE;10
Malmö Flotten;;Malmöhusvägen 8;21118;Malmö;SE;9
Matverkstaden på Lokstallarna;;Södra Bulltoftavägen 51;21222;Malmö;SE;10
Rex;;Nobelvägen 107;21433;Malmö;SE;10
Scandic Triangeln;;Triangeln 2;21143;Malmö;SE;4
X Club Malmö;;Amiralsgatan 20;21155;Malmö;SE;3
Strandverket Marstrand;;Hamngatan;44267;Marstrand;SE;4
Chill Out Strandbar & Restaurang;Chillout Strandbar och Restaurang;Kustvägen 40;31260;Mellbystrand;SE;10
Östanås, Molkom;;ÖSTANÅS 615;65598;Molkom;SE;4
Crêpe et Ciel;Crepe et Ciel;Säteriallén 13;43532;Mölnlycke;SE;10
Råda Säteri;;Säteriallén 1;43532;Mölnlycke;SE;5
Storängssalen;;Värmdövägen 176;13141;Nacka;SE;4
Evigheten;;Vulkangatan 3;60223;Norrköping;SE;4
Lilla Teatern ;;Norra Promenaden 108;60218;Norrköping;SE;8
Folkets Hus Norrtälje;;Galles gränd 5;76130;Norrtälje;SE;4
Hallunda Folkets Hus;;Borgvägen 1;14569;Norsborg;SE;4
Nykvarns Folkets Park;;Gammeltorpsvägen 7;15530;Nykvarn;SE;4
Kärrboda gård;;611 95 Nyköping;61195;Nyköping;SE;5
Escape Nightclub ;;Nynäsvägen 22;14940;Nynäshamn;SE;3
Knö Kultur;;VÄNGE SUDERBYS 619;62236;Romakloster;SE;4
Grünewaldvillan;Grunewaldvillan;Saltsjöpromenaden 8;13335;Saltsjöbaden;SE;4
Boo Folkets Hus;;Utövägen 6;13230;Saltsjö-boo;SE;4
Kanonholmen Seafood;;VADTORP 451;82072;Sandarne;SE;10
Stenö Havsbad & Camping;Stenö Havsbad och Camping;Stenövägen 130;82673;Sandarne;SE;5
Sägnernas hus;;Svenstorp Sörgården;56594;Sandhem;SE;4
Högbo Bruk;;Hans Hiertas väg 20;81192;Sandviken;SE;5
Emmabåten;;Stenbryggan Sandviken ;81161;Sandviken;SE;9
Sunnanäng Kulturgård;;Prästbricksvägen 103;81191;Sandviken;SE;4
Sandsjöns Festplats;;Sandsjön Kringelkärr 63B;51291;Sexdrega;SE;5
Gladsax Kyrka;;272 94 Simrishamn V;27294;Simrishamn;SE;7
Rikstolvan;;Rikstolvan 34;27292;Simrishamn;SE;4
Stjärnbryggeriet;;Raskarumsvägen 73;27295;Simrishamn;SE;4
Skara Stadshotell;;Järnvägsgatan 5;53230;Skara;SE;4
Skråmträsk Saloon;;Västra SKRÅMTRÄSK 122;93196;Skellefteå;SE;4
JUNKYARD;;Upplagsvägen 22;14291;Skogås;SE;5
Skurups Folkets Hus;;Per Henriksgatan 2;27432;Skurup;SE;4
Värmeverket;;Bredängsvägen 203;12734;Skärholmen;SE;4
Bet:L Pingst;Betl Pingst;Lögegatan 1;54130;Skövde;SE;7
Husaren;;Sankt Helenagatan 10;54130;Skövde;SE;10
Hållö Kapell;;HÅLLÖ 8;45651;Smögen;SE;7
Boulebar Haga;;Annerovägen 4;16970;Solna;SE;5
Solnahallen;;Ankdammsgatan 46;17167;Solna;SE;4
Sorunda Bygdegård;;Kyrkgatan 8;14870;Sorunda;SE;4
Sorunda Församlingshem;;Kyrkgatan 16;14870;Sorunda;SE;4
Sparreholms slott;;Sparreholms slott 1;64091;Sparreholm;SE;5
Bistro Beo;;Västra KÖPMANSGATAN 31;44430;Stenungsund;SE;10
alias TEATERN;;Hälsingegatan 3;11323;Stockholm;SE;8
Big Ben Standup;Bigben Standup;Folkungagatan 97;11630;Stockholm;SE;10
Bio Rio;;Hornstulls strand 3;11739;Stockholm;SE;4
Bonden Bar;;Bondegatan 1;11623;Stockholm;SE;10
Bonniers Konsthall;;Torsgatan 19;11321;Stockholm;SE;4
Dramatenterrassen;;Nybroplan 2;11147;Stockholm;SE;5
Ersta terrass;;Erstagatan 1N;11628;Stockholm;SE;5
Gröndals Båtklubb;;Lusuddsvägen 10;11766;Stockholm;SE;5
Hallwylska museet;;Hamngatan 4;11147;Stockholm;SE;4
Hemma hos Kaj;;Hammarby kaj 18;12030;Stockholm;SE;10
Kasai Stockholm;;Linnégatan 18;11447;Stockholm;SE;10
Kolingen;;Kornhamnstorg 59;11127;Stockholm;SE;3
Kristinehovs Malmgård;;Kristinehovsgatan 2;11729;Stockholm;SE;4
Kungasalen;;Valhallavägen 105;11551;Stockholm;SE;2
Kungsholms kyrka;;Kaplansbacken 1;11224;Stockholm;SE;7
LYKKE NYTORGET;;Nytorgsgatan 38;11640;Stockholm;SE;10
M/S Ambiance;MS Ambiance;Skeppsbrokajen 104;11129;Stockholm;SE;9
M/S Vindhem;MS Vindhem;Skeppsbron 101;11130;Stockholm;SE;9
Pitcher's;Pitchers;Mariatorget  1A;11848;Stockholm;SE;10
Marie Laveau;;Hornsgatan 66b;11821;Stockholm;SE;3
Mas que tapas;;Klarabergsviadukten 86;10130;Stockholm;SE;10
Mister French;;Tullhus 2;11130;Stockholm;SE;10
Naboterrassen;;Regeringsgatan 47;11156;Stockholm;SE;5
Nomad Swedish food & bar;Nomad Swedish food och bar;Upplandsgatan 2;11123;Stockholm;SE;10
Outdoor By a lake;;Outdoor by a lake;12345;Stockholm;SE;5
Presens Impro;;Hagagatan 48;11347;Stockholm;SE;8
Pygméteatern;Pygmeteatern;Vegagatan 17;11329;Stockholm;SE;8
Restaurang Cirkeln;;Sveavägen 41;11183;Stockholm;SE;10
Akkurat;;Hornsgatan 18;11820;Stockholm;SE;10
ABF-Huset;ABF Huset;Sveavägen 41;11134;Stockholm;SE;4
Scandic Malmen;;Götgatan 49-51;11621;Stockholm;SE;4
Sidenkällaren;;Repslagargatan 15D;11846;Stockholm;SE;10
Skaiv;;Folkungagatan 90;11622;Stockholm;SE;4
Stockholms Improvisationsteater;;Sigtunagatan 12;11322;Stockholm;SE;8
The Bach Boat;;Skeppsbrokajen 104;11130;Stockholm;SE;9
The Node;;Under the fountain, Sergels Torg;11157;Stockholm;SE;4
Viktor Rydberg gymnasium;;Frejgatan 30;11349;Stockholm;SE;4
Vintervikens Trädgård;;Vinterviksvägen 30;11765;Stockholm;SE;5
Konstakademien;;Fredsgatan 12;11521;Stockholm ;SE;4
Löfnäs Loge;;LÖVNÄS GÅRD 1;79015;Sundborn;SE;4
Pipeline Sundsvalls Musikforum;;Kyrkogatan 6;85231;Sundsvall;SE;4
Redslareds Bygdegård;;Reaskäl;51292;Svenljunga;SE;4
Huggenäs Bygdegård;;661 92 Säffle;66192;Säffle;SE;4
Restaurang Galna Tuppen;;Sundsgatan 30;66142;Säffle;SE;10
Världsarvsgården Erik-Anders;;Asta 728;82661;Söderala;SE;5
Christos Bistro;;Oxtorgsgatan 16;82632;Söderhamn;SE;10
Mo Bygdegård;;Florhed 859;82193;Söderhamn;SE;4
Stadshotellet;;Oxtorgsgatan 17;82632;Söderhamn;SE;4
Söderhamns stadsbibliotek;;Köpmangatan 11;82630;Söderhamn;SE;4
Brunnsparken;;Skepparevägen 10;61430;Söderköping;SE;7
Kanalmagasinet i Mem;;Kanalmagasinet i Mem ;61492;Söderköping;SE;4
Spraglehall Naturreservat;;Spraglehallsvägen 15;29475;Sölvesborg;SE;5
Eric Sahlström Institutet ;;Bruksgatan 3;74850;Tobo;SE;4
Sjölyckan;;Spinnerivägen 6;44850;Tollered;SE;10
Backstage Rockbar;;Kungsgatan 24;46130;Trollhättan;SE;10
Tullinge kyrka;;Ulvsbergsvägen 1;14654;Tullinge;SE;7
Tyresö kyrka;;Kyrkvägen 1;13560;Tyresö;SE;7
Hembygdsgården;;Museivägen;74045;Tärnsjö;SE;4
Folkets Hus;;Göteborgsvägen 11B;45142;Uddevalla;SE;4
Elite Hotel Mimer;;Kungsgatan 75;90326;Umeå;SE;4
Norrlands nation;;Västra Ågatan 14;75309;Uppsala;SE;4
Bogesunds slott;;Per Brahes väg;18593;Vaxholm;SE;4
Stättareds 4H-gård & vandrarhem;Stättareds 4H-gård och vandrarhem;Stättaredsvägen 438;43266;Veddige;SE;5
Knuteslogen;;Täppvägen 1;79570;Vikarbyn;SE;4
Nydala Klosterkyrka;;Nydala;57697;Vrigstad;SE;7
Samiskt Danscenter - Jillat;;Murjeksvägen 31;96270;Vuollerim;SE;4
Björkkulla gård;;Björkkulla gårdsväg 10;76491;Väddö;SE;4
Hesselby Slott;Hässelby slott;Maltesholmsvägen 1;16555;Vällingby;SE;4
Vänersborgs museum;;Östra plantaget;46233;Vänersborg;SE;4
Båtsmansstugorna Västervik;;Västervik;59330;Västervik;SE;5
Hotel Plaza;;Kopparbergsvägen 10;72213;Västerås;SE;4
Mälarkrogen;;Lögarängsvägen 5;72132;Västerås;SE;10
Östra kyrkogården;;Utanbygatan 5I;72214;Västerås;SE;5
Kalvefalls;;Kalvefalls Gård;57060;Ydre;SE;10
Sugarbox Ystad (Ystads sockersilo);;Spanienfararegatan 5;27139;Ystad;SE;4
Runö Möten & Events;Runö Möten och Events;Näsvägen 100;18444;Åkersberga;SE;4
Bunges Kapell;;Åmotsvägen 15;81695;Åmotsbruk;SE;7
Cirkus Jönsson ;;Sköntorpsvägen 7;12038;Årsta;SE;4
Upperud 9:9;;Upperud 9;46440;Åsensbruk;SE;5
Rökeriet;;Nordre Parten 62;47144;Åstol;SE;10
Älta Kulturknut;;138 30 Älta;13830;Älta;SE;4
Teater Albatross;;311 51 Ätran;31151;Ätran;SE;8
Jordhammars Herrgård;;Jordhammars Herrgård;44495;Ödsmål;SE;4
Schreibers Garage;;Kåvivägen 15;70375;Örebro;SE;4
Elite Plaza Hotel;;Hotellgatan 9;89139;Örnsköldsvik;SE;4
Jazzköket;;Prästgatan 44G;83133;Östersund;SE;10
Studio Kapellet;;Staffansbo 105;74048;Östervåla;SE;4
Kulturhuset Storbrunn;;Klockstapelsgatan 2;74232;Östhammar;SE;4
Sju Sjöar;;Brännared Holmen 3;51997;Öxnevalla;SE;5